{
"type": "FeatureCollection",
"name": "settlement_isolation",
"crs": { "type": "name", "properties": { "name": "urn:ogc:def:crs:OGC:1.3:CRS84" } },
"features": [
{ "type": "Feature", "properties": { "element": "node", "id": 256196848, "name": "Tambaram", "place": "city", "population": "174800", "settlement_id": "sett_0", "built_exposure": 0.903, "mean_risk": 0.5564, "exposure_units": 9030.0, "status": "Severely Delayed (≥2x Normal Time)", "time_normal_min": 0.2, "time_flood_min": 1.6, "delay_ratio": 7.03 }, "geometry": { "type": "Point", "coordinates": [ 80.1150525, 12.9245279 ] } },
{ "type": "Feature", "properties": { "element": "node", "id": 256197926, "name": "East Tambaram", "place": "suburb", "population": null, "settlement_id": "sett_1", "built_exposure": 0.729, "mean_risk": 0.5348, "exposure_units": 7290.0, "status": "Connected (Passable Route)", "time_normal_min": 0.8, "time_flood_min": 0.8, "delay_ratio": 1.0 }, "geometry": { "type": "Point", "coordinates": [ 80.1314526, 12.9265148 ] } },
{ "type": "Feature", "properties": { "element": "node", "id": 256197927, "name": "Chromepet", "place": "suburb", "population": null, "settlement_id": "sett_2", "built_exposure": 0.4057, "mean_risk": 0.3467, "exposure_units": 4057.0, "status": "Connected (Passable Route)", "time_normal_min": 0.6, "time_flood_min": 0.6, "delay_ratio": 1.0 }, "geometry": { "type": "Point", "coordinates": [ 80.135642, 12.9496841 ] } },
{ "type": "Feature", "properties": { "element": "node", "id": 256197928, "name": "Pallavaram", "place": "town", "population": "214500", "settlement_id": "sett_3", "built_exposure": 0.1341, "mean_risk": 0.3761, "exposure_units": 1341.0, "status": "Connected (Passable Route)", "time_normal_min": 2.0, "time_flood_min": 2.0, "delay_ratio": 1.0 }, "geometry": { "type": "Point", "coordinates": [ 80.1451178, 12.9654669 ] } },
{ "type": "Feature", "properties": { "element": "node", "id": 256197930, "name": "Selaiyur", "place": "suburb", "population": null, "settlement_id": "sett_4", "built_exposure": 0.5643, "mean_risk": 0.4599, "exposure_units": 5643.0, "status": "Connected (Passable Route)", "time_normal_min": 3.0, "time_flood_min": 3.0, "delay_ratio": 1.0 }, "geometry": { "type": "Point", "coordinates": [ 80.1379536, 12.9178113 ] } },
{ "type": "Feature", "properties": { "element": "node", "id": 256197931, "name": "Chitlapakkam", "place": "suburb", "population": null, "settlement_id": "sett_5", "built_exposure": 0.3937, "mean_risk": 0.4955, "exposure_units": 3937.0, "status": "Connected (Passable Route)", "time_normal_min": 0.5, "time_flood_min": 0.5, "delay_ratio": 1.0 }, "geometry": { "type": "Point", "coordinates": [ 80.1413832, 12.9330984 ] } },
{ "type": "Feature", "properties": { "element": "node", "id": 256197932, "name": "Hasthinapuram", "place": "neighbourhood", "population": null, "settlement_id": "sett_6", "built_exposure": 0.2792, "mean_risk": 0.4832, "exposure_units": 2792.0, "status": "Connected (Passable Route)", "time_normal_min": 2.3, "time_flood_min": 2.7, "delay_ratio": 1.17 }, "geometry": { "type": "Point", "coordinates": [ 80.1519854, 12.9372824 ] } },
{ "type": "Feature", "properties": { "element": "node", "id": 256197946, "name": "Rajakilpakkam", "place": "suburb", "population": null, "settlement_id": "sett_7", "built_exposure": 0.2471, "mean_risk": 0.4375, "exposure_units": 2471.0, "status": "Connected (Passable Route)", "time_normal_min": 1.1, "time_flood_min": 1.1, "delay_ratio": 1.0 }, "geometry": { "type": "Point", "coordinates": [ 80.1544267, 12.9178445 ] } },
{ "type": "Feature", "properties": { "element": "node", "id": 256197949, "name": "Medavakkam", "place": "suburb", "population": null, "settlement_id": "sett_8", "built_exposure": 0.0891, "mean_risk": 0.541, "exposure_units": 891.0, "status": "Connected (Passable Route)", "time_normal_min": 3.0, "time_flood_min": 4.7, "delay_ratio": 1.54 }, "geometry": { "type": "Point", "coordinates": [ 80.1872156, 12.9202141 ] } },
{ "type": "Feature", "properties": { "element": "node", "id": 256197952, "name": "Perumbakkam", "place": "suburb", "population": null, "settlement_id": "sett_9", "built_exposure": 0.1361, "mean_risk": 0.5501, "exposure_units": 1361.0, "status": "Severely Delayed (≥2x Normal Time)", "time_normal_min": 5.5, "time_flood_min": 17.7, "delay_ratio": 3.23 }, "geometry": { "type": "Point", "coordinates": [ 80.1956163, 12.9055459 ] } },
{ "type": "Feature", "properties": { "element": "node", "id": 256197956, "name": "Sithalapakkam", "place": "suburb", "population": null, "settlement_id": "sett_10", "built_exposure": 0.1047, "mean_risk": 0.4269, "exposure_units": 1047.0, "status": "Connected (Passable Route)", "time_normal_min": 0.2, "time_flood_min": 0.2, "delay_ratio": 1.0 }, "geometry": { "type": "Point", "coordinates": [ 80.1840304, 12.8914228 ] } },
{ "type": "Feature", "properties": { "element": "node", "id": 256202916, "name": "Madambakkam", "place": "suburb", "population": null, "settlement_id": "sett_11", "built_exposure": 0.2946, "mean_risk": 0.5395, "exposure_units": 2945.9999999999995, "status": "Connected (Passable Route)", "time_normal_min": 1.5, "time_flood_min": 1.5, "delay_ratio": 1.0 }, "geometry": { "type": "Point", "coordinates": [ 80.1586793, 12.9063303 ] } },
{ "type": "Feature", "properties": { "element": "node", "id": 256202982, "name": "Thiruneermalai", "place": "suburb", "population": null, "settlement_id": "sett_12", "built_exposure": 0.8148, "mean_risk": 0.5329, "exposure_units": 8148.0, "status": "Connected (Passable Route)", "time_normal_min": 2.9, "time_flood_min": 4.6, "delay_ratio": 1.57 }, "geometry": { "type": "Point", "coordinates": [ 80.1135414, 12.963094 ] } },
{ "type": "Feature", "properties": { "element": "node", "id": 256202986, "name": "Pammal", "place": "suburb", "population": null, "settlement_id": "sett_13", "built_exposure": 0.1893, "mean_risk": 0.3499, "exposure_units": 1893.0, "status": "Connected (Passable Route)", "time_normal_min": 0.6, "time_flood_min": 0.6, "delay_ratio": 1.0 }, "geometry": { "type": "Point", "coordinates": [ 80.1363647, 12.9762312 ] } },
{ "type": "Feature", "properties": { "element": "node", "id": 256203138, "name": "Irumbuliyur", "place": "suburb", "population": null, "settlement_id": "sett_14", "built_exposure": 0.9329, "mean_risk": 0.4858, "exposure_units": 9329.0, "status": "Connected (Passable Route)", "time_normal_min": 4.3, "time_flood_min": 6.0, "delay_ratio": 1.41 }, "geometry": { "type": "Point", "coordinates": [ 80.1088976, 12.9122029 ] } },
{ "type": "Feature", "properties": { "element": "node", "id": 256203139, "name": "Perungalathur", "place": "suburb", "population": null, "settlement_id": "sett_15", "built_exposure": 0.417, "mean_risk": 0.3304, "exposure_units": 4170.0, "status": "Connected (Passable Route)", "time_normal_min": 3.8, "time_flood_min": 3.8, "delay_ratio": 1.0 }, "geometry": { "type": "Point", "coordinates": [ 80.0879549, 12.9145454 ] } },
{ "type": "Feature", "properties": { "element": "node", "id": 278544356, "name": "Madipakkam", "place": "suburb", "population": null, "settlement_id": "sett_16", "built_exposure": 0.8121, "mean_risk": 0.6448, "exposure_units": 8121.0, "status": "Isolated (Hospital Cut Off)", "time_normal_min": 5.2, "time_flood_min": null, "delay_ratio": null }, "geometry": { "type": "Point", "coordinates": [ 80.2001292, 12.9611348 ] } },
{ "type": "Feature", "properties": { "element": "node", "id": 280510383, "name": "கண்ணன் நகர்", "place": "neighbourhood", "population": null, "settlement_id": "sett_17", "built_exposure": 0.6363, "mean_risk": 0.5109, "exposure_units": 6363.0, "status": "Connected (Passable Route)", "time_normal_min": 1.1, "time_flood_min": 1.2, "delay_ratio": 1.07 }, "geometry": { "type": "Point", "coordinates": [ 80.1893164, 12.9699068 ] } },
{ "type": "Feature", "properties": { "element": "node", "id": 280510797, "name": "Balaji Nagar", "place": "neighbourhood", "population": null, "settlement_id": "sett_18", "built_exposure": 0.7256, "mean_risk": 0.5318, "exposure_units": 7256.0, "status": "Connected (Passable Route)", "time_normal_min": 0.8, "time_flood_min": 0.9, "delay_ratio": 1.1 }, "geometry": { "type": "Point", "coordinates": [ 80.1905716, 12.9721642 ] } },
{ "type": "Feature", "properties": { "element": "node", "id": 280518793, "name": "Puzhuthivakkam", "place": "suburb", "population": null, "settlement_id": "sett_19", "built_exposure": 0.98, "mean_risk": 0.6642, "exposure_units": 9800.0, "status": "Isolated (Hospital Cut Off)", "time_normal_min": 10.6, "time_flood_min": null, "delay_ratio": null }, "geometry": { "type": "Point", "coordinates": [ 80.2062626, 12.9691428 ] } },
{ "type": "Feature", "properties": { "element": "node", "id": 280521191, "name": "Ram Nagar", "place": "neighbourhood", "population": null, "settlement_id": "sett_20", "built_exposure": 0.9495, "mean_risk": 0.6582, "exposure_units": 9495.0, "status": "Isolated (Hospital Cut Off)", "time_normal_min": 8.0, "time_flood_min": null, "delay_ratio": null }, "geometry": { "type": "Point", "coordinates": [ 80.2118131, 12.9653558 ] } },
{ "type": "Feature", "properties": { "element": "node", "id": 280521508, "name": "Sadasiva Nagar", "place": "neighbourhood", "population": null, "settlement_id": "sett_21", "built_exposure": 0.98, "mean_risk": 0.6637, "exposure_units": 9800.0, "status": "Isolated (Hospital Cut Off)", "time_normal_min": 5.4, "time_flood_min": null, "delay_ratio": null }, "geometry": { "type": "Point", "coordinates": [ 80.2028543, 12.9651292 ] } },
{ "type": "Feature", "properties": { "element": "node", "id": 294073714, "name": "Periya Colony", "place": "neighbourhood", "population": null, "settlement_id": "sett_22", "built_exposure": 0.3169, "mean_risk": 0.4481, "exposure_units": 3169.0, "status": "Isolated (Hospital Cut Off)", "time_normal_min": null, "time_flood_min": null, "delay_ratio": null }, "geometry": { "type": "Point", "coordinates": [ 80.0614965, 12.9734626 ] } },
{ "type": "Feature", "properties": { "element": "node", "id": 301133602, "name": "Muthamizh Nagar", "place": "locality", "population": null, "settlement_id": "sett_23", "built_exposure": 0.2511, "mean_risk": 0.4597, "exposure_units": 2511.0, "status": "Connected (Passable Route)", "time_normal_min": 1.3, "time_flood_min": 1.3, "delay_ratio": 1.0 }, "geometry": { "type": "Point", "coordinates": [ 80.1437333, 12.9700812 ] } },
{ "type": "Feature", "properties": { "element": "node", "id": 301134399, "name": "Thirumudivakkam", "place": "suburb", "population": null, "settlement_id": "sett_24", "built_exposure": 0.6442, "mean_risk": 0.5409, "exposure_units": 6442.0, "status": "Severely Delayed (≥2x Normal Time)", "time_normal_min": 7.9, "time_flood_min": 39.8, "delay_ratio": 5.02 }, "geometry": { "type": "Point", "coordinates": [ 80.0815441, 12.9648673 ] } },
{ "type": "Feature", "properties": { "element": "node", "id": 301134429, "name": "Palanthandalam", "place": "suburb", "population": null, "settlement_id": "sett_25", "built_exposure": 0.31, "mean_risk": 0.5195, "exposure_units": 3100.0, "status": "Connected (Passable Route)", "time_normal_min": 6.2, "time_flood_min": 6.2, "delay_ratio": 1.0 }, "geometry": { "type": "Point", "coordinates": [ 80.0703903, 12.9599299 ] } },
{ "type": "Feature", "properties": { "element": "node", "id": 301134468, "name": "Erumaiyur", "place": "suburb", "population": null, "settlement_id": "sett_26", "built_exposure": 0.6456, "mean_risk": 0.5048, "exposure_units": 6455.9999999999991, "status": "Connected (Passable Route)", "time_normal_min": 8.4, "time_flood_min": 8.8, "delay_ratio": 1.04 }, "geometry": { "type": "Point", "coordinates": [ 80.0815988, 12.9547388 ] } },
{ "type": "Feature", "properties": { "element": "node", "id": 301135484, "name": "Tirusulam", "place": "suburb", "population": null, "settlement_id": "sett_27", "built_exposure": 0.2234, "mean_risk": 0.4162, "exposure_units": 2234.0, "status": "Connected (Passable Route)", "time_normal_min": 4.3, "time_flood_min": 4.3, "delay_ratio": 1.0 }, "geometry": { "type": "Point", "coordinates": [ 80.1670775, 12.9738279 ] } },
{ "type": "Feature", "properties": { "element": "node", "id": 301136096, "name": "Bakhtavachalam Nagar", "place": "neighbourhood", "population": null, "settlement_id": "sett_28", "built_exposure": 0.3726, "mean_risk": 0.4902, "exposure_units": 3726.0, "status": "Severely Delayed (≥2x Normal Time)", "time_normal_min": 5.2, "time_flood_min": 18.3, "delay_ratio": 3.51 }, "geometry": { "type": "Point", "coordinates": [ 80.179105, 12.9778604 ] } },
{ "type": "Feature", "properties": { "element": "node", "id": 301139010, "name": "Kamarajapuram", "place": "locality", "population": null, "settlement_id": "sett_29", "built_exposure": 0.4963, "mean_risk": 0.4301, "exposure_units": 4963.0, "status": "Connected (Passable Route)", "time_normal_min": 2.1, "time_flood_min": 2.1, "delay_ratio": 1.0 }, "geometry": { "type": "Point", "coordinates": [ 80.1215013, 12.9724421 ] } },
{ "type": "Feature", "properties": { "element": "node", "id": 301731218, "name": "Ullagaram", "place": "suburb", "population": null, "settlement_id": "sett_30", "built_exposure": 0.8723, "mean_risk": 0.5777, "exposure_units": 8723.0, "status": "Severely Delayed (≥2x Normal Time)", "time_normal_min": 1.9, "time_flood_min": 10.3, "delay_ratio": 5.43 }, "geometry": { "type": "Point", "coordinates": [ 80.1967196, 12.9765868 ] } },
{ "type": "Feature", "properties": { "element": "node", "id": 301734430, "name": "Moovarasampettai", "place": "suburb", "population": null, "settlement_id": "sett_31", "built_exposure": 0.4509, "mean_risk": 0.5624, "exposure_units": 4509.0, "status": "Severely Delayed (≥2x Normal Time)", "time_normal_min": 2.7, "time_flood_min": 10.3, "delay_ratio": 3.86 }, "geometry": { "type": "Point", "coordinates": [ 80.1833591, 12.9693665 ] } },
{ "type": "Feature", "properties": { "element": "node", "id": 306115244, "name": "Sunnambu Kulathur", "place": "neighbourhood", "population": null, "settlement_id": "sett_32", "built_exposure": 0.01, "mean_risk": 0.5972, "exposure_units": 100.0, "status": "Severely Delayed (≥2x Normal Time)", "time_normal_min": 3.1, "time_flood_min": 20.4, "delay_ratio": 6.57 }, "geometry": { "type": "Point", "coordinates": [ 80.1963456, 12.9426667 ] } },
{ "type": "Feature", "properties": { "element": "node", "id": 306115288, "name": "Narayanapuram", "place": "suburb", "population": null, "settlement_id": "sett_33", "built_exposure": 0.01, "mean_risk": 0.578, "exposure_units": 100.0, "status": "Isolated (Hospital Cut Off)", "time_normal_min": 5.7, "time_flood_min": null, "delay_ratio": null }, "geometry": { "type": "Point", "coordinates": [ 80.2083837, 12.9417967 ] } },
{ "type": "Feature", "properties": { "element": "node", "id": 306115540, "name": "Jalladampet", "place": "suburb", "population": null, "settlement_id": "sett_34", "built_exposure": 0.01, "mean_risk": 0.7179, "exposure_units": 100.0, "status": "Isolated (Hospital Cut Off)", "time_normal_min": 3.1, "time_flood_min": null, "delay_ratio": null }, "geometry": { "type": "Point", "coordinates": [ 80.2016924, 12.9197533 ] } },
{ "type": "Feature", "properties": { "element": "node", "id": 306116789, "name": "Vengaivasal Panchayat office", "place": "locality", "population": null, "settlement_id": "sett_35", "built_exposure": 0.1365, "mean_risk": 0.4333, "exposure_units": 1365.0, "status": "Connected (Passable Route)", "time_normal_min": 3.4, "time_flood_min": 3.4, "delay_ratio": 1.0 }, "geometry": { "type": "Point", "coordinates": [ 80.1715639, 12.9000243 ] } },
{ "type": "Feature", "properties": { "element": "node", "id": 306117469, "name": "Peerkankaranai", "place": "neighbourhood", "population": null, "settlement_id": "sett_36", "built_exposure": 0.7789, "mean_risk": 0.4804, "exposure_units": 7789.0, "status": "Connected (Passable Route)", "time_normal_min": 3.9, "time_flood_min": 3.9, "delay_ratio": 1.0 }, "geometry": { "type": "Point", "coordinates": [ 80.1009824, 12.9080858 ] } },
{ "type": "Feature", "properties": { "element": "node", "id": 306117685, "name": "Kolapakkam", "place": "suburb", "population": null, "settlement_id": "sett_37", "built_exposure": 0.4896, "mean_risk": 0.4042, "exposure_units": 4896.0, "status": "Connected (Passable Route)", "time_normal_min": 6.3, "time_flood_min": 6.3, "delay_ratio": 1.0 }, "geometry": { "type": "Point", "coordinates": [ 80.1049737, 12.8719136 ] } },
{ "type": "Feature", "properties": { "element": "node", "id": 306117874, "name": "Vandalur", "place": "suburb", "population": null, "settlement_id": "sett_38", "built_exposure": 0.1809, "mean_risk": 0.3957, "exposure_units": 1809.0, "status": "Connected (Passable Route)", "time_normal_min": 1.0, "time_flood_min": 1.0, "delay_ratio": 1.0 }, "geometry": { "type": "Point", "coordinates": [ 80.0829603, 12.8921486 ] } },
{ "type": "Feature", "properties": { "element": "node", "id": 306118067, "name": "Mudichur", "place": "suburb", "population": null, "settlement_id": "sett_39", "built_exposure": 0.1092, "mean_risk": 0.3029, "exposure_units": 1092.0, "status": "Connected (Passable Route)", "time_normal_min": 2.1, "time_flood_min": 2.1, "delay_ratio": 1.0 }, "geometry": { "type": "Point", "coordinates": [ 80.0688419, 12.9149849 ] } },
{ "type": "Feature", "properties": { "element": "node", "id": 306118071, "name": "Varadarajapuram", "place": "suburb", "population": null, "settlement_id": "sett_40", "built_exposure": 0.2092, "mean_risk": 0.3675, "exposure_units": 2092.0, "status": "Connected (Passable Route)", "time_normal_min": 3.5, "time_flood_min": 3.5, "delay_ratio": 1.0 }, "geometry": { "type": "Point", "coordinates": [ 80.067655, 12.9059866 ] } },
{ "type": "Feature", "properties": { "element": "node", "id": 308900749, "name": "Agaramthen", "place": "suburb", "population": null, "settlement_id": "sett_41", "built_exposure": 0.01, "mean_risk": 0.565, "exposure_units": 100.0, "status": "Isolated (Hospital Cut Off)", "time_normal_min": 4.3, "time_flood_min": null, "delay_ratio": null }, "geometry": { "type": "Point", "coordinates": [ 80.1539761, 12.885667 ] } },
{ "type": "Feature", "properties": { "element": "node", "id": 308914614, "name": "Voltas Colony", "place": "neighbourhood", "population": null, "settlement_id": "sett_42", "built_exposure": 0.5873, "mean_risk": 0.5342, "exposure_units": 5873.0, "status": "Severely Delayed (≥2x Normal Time)", "time_normal_min": 1.8, "time_flood_min": 6.8, "delay_ratio": 3.74 }, "geometry": { "type": "Point", "coordinates": [ 80.1863675, 12.9744987 ] } },
{ "type": "Feature", "properties": { "element": "node", "id": 308915449, "name": "Union Carbide Colony", "place": "neighbourhood", "population": null, "settlement_id": "sett_43", "built_exposure": 0.6723, "mean_risk": 0.5672, "exposure_units": 6723.0, "status": "Severely Delayed (≥2x Normal Time)", "time_normal_min": 1.5, "time_flood_min": 7.0, "delay_ratio": 4.77 }, "geometry": { "type": "Point", "coordinates": [ 80.1931481, 12.9739802 ] } },
{ "type": "Feature", "properties": { "element": "node", "id": 310360632, "name": "Keelkattalai", "place": "suburb", "population": null, "settlement_id": "sett_44", "built_exposure": 0.3836, "mean_risk": 0.5442, "exposure_units": 3836.0, "status": "Severely Delayed (≥2x Normal Time)", "time_normal_min": 3.1, "time_flood_min": 12.5, "delay_ratio": 4.02 }, "geometry": { "type": "Point", "coordinates": [ 80.1852685, 12.9548473 ] } },
{ "type": "Feature", "properties": { "element": "node", "id": 310363802, "name": "Santoshapuram", "place": "suburb", "population": null, "settlement_id": "sett_45", "built_exposure": 0.1756, "mean_risk": 0.3906, "exposure_units": 1756.0, "status": "Connected (Passable Route)", "time_normal_min": 1.1, "time_flood_min": 1.1, "delay_ratio": 1.0 }, "geometry": { "type": "Point", "coordinates": [ 80.1739903, 12.9159656 ] } },
{ "type": "Feature", "properties": { "element": "node", "id": 310378460, "name": "Gowriwakkam", "place": "suburb", "population": null, "settlement_id": "sett_46", "built_exposure": 0.1428, "mean_risk": 0.4776, "exposure_units": 1428.0, "status": "Connected (Passable Route)", "time_normal_min": 2.2, "time_flood_min": 2.2, "delay_ratio": 1.0 }, "geometry": { "type": "Point", "coordinates": [ 80.161974, 12.9207592 ] } },
{ "type": "Feature", "properties": { "element": "node", "id": 313280567, "name": "Sadanandapuram", "place": "suburb", "population": null, "settlement_id": "sett_47", "built_exposure": 0.8535, "mean_risk": 0.5122, "exposure_units": 8535.0, "status": "Connected (Passable Route)", "time_normal_min": 4.5, "time_flood_min": 4.5, "delay_ratio": 1.0 }, "geometry": { "type": "Point", "coordinates": [ 80.1097115, 12.8973659 ] } },
{ "type": "Feature", "properties": { "element": "node", "id": 313281569, "name": "Nedungundram", "place": "suburb", "population": null, "settlement_id": "sett_48", "built_exposure": 0.7438, "mean_risk": 0.4608, "exposure_units": 7438.0, "status": "Connected (Passable Route)", "time_normal_min": 7.8, "time_flood_min": 7.8, "delay_ratio": 1.0 }, "geometry": { "type": "Point", "coordinates": [ 80.1089039, 12.8796084 ] } },
{ "type": "Feature", "properties": { "element": "node", "id": 313282318, "name": "Unamancherri", "place": "locality", "population": null, "settlement_id": "sett_49", "built_exposure": 0.489, "mean_risk": 0.4039, "exposure_units": 4890.0, "status": "Connected (Passable Route)", "time_normal_min": 6.5, "time_flood_min": 6.5, "delay_ratio": 1.0 }, "geometry": { "type": "Point", "coordinates": [ 80.1073083, 12.8602324 ] } },
{ "type": "Feature", "properties": { "element": "node", "id": 331163199, "name": "Puducheri", "place": "village", "population": null, "settlement_id": "sett_50", "built_exposure": 0.1133, "mean_risk": 0.4953, "exposure_units": 1133.0, "status": "Connected (Passable Route)", "time_normal_min": 1.0, "time_flood_min": 1.0, "delay_ratio": 1.0 }, "geometry": { "type": "Point", "coordinates": [ 80.0428141, 12.9519019 ] } },
{ "type": "Feature", "properties": { "element": "node", "id": 331163303, "name": "Poonthandalam", "place": "village", "population": null, "settlement_id": "sett_51", "built_exposure": 0.1734, "mean_risk": 0.448, "exposure_units": 1734.0, "status": "Connected (Passable Route)", "time_normal_min": 2.8, "time_flood_min": 2.8, "delay_ratio": 1.0 }, "geometry": { "type": "Point", "coordinates": [ 80.0497578, 12.9642395 ] } },
{ "type": "Feature", "properties": { "element": "node", "id": 331881314, "name": "Kadaperi", "place": "locality", "population": null, "settlement_id": "sett_52", "built_exposure": 0.8544, "mean_risk": 0.5043, "exposure_units": 8544.0, "status": "Severely Delayed (≥2x Normal Time)", "time_normal_min": 3.1, "time_flood_min": 16.4, "delay_ratio": 5.24 }, "geometry": { "type": "Point", "coordinates": [ 80.1215037, 12.9343103 ] } },
{ "type": "Feature", "properties": { "element": "node", "id": 331910223, "name": "Kannadapalayam", "place": "suburb", "population": null, "settlement_id": "sett_53", "built_exposure": 0.9069, "mean_risk": 0.5066, "exposure_units": 9069.0, "status": "Severely Delayed (≥2x Normal Time)", "time_normal_min": 3.1, "time_flood_min": 10.1, "delay_ratio": 3.31 }, "geometry": { "type": "Point", "coordinates": [ 80.1015355, 12.9364364 ] } },
{ "type": "Feature", "properties": { "element": "node", "id": 331913707, "name": "Dharkas", "place": "village", "population": null, "settlement_id": "sett_54", "built_exposure": 0.3032, "mean_risk": 0.4953, "exposure_units": 3032.0000000000005, "status": "Connected (Passable Route)", "time_normal_min": 6.7, "time_flood_min": 6.7, "delay_ratio": 1.0 }, "geometry": { "type": "Point", "coordinates": [ 80.0715416, 12.9410443 ] } },
{ "type": "Feature", "properties": { "element": "node", "id": 331914721, "name": "Ettayapuram", "place": "village", "population": null, "settlement_id": "sett_55", "built_exposure": 0.2709, "mean_risk": 0.4841, "exposure_units": 2708.9999999999995, "status": "Connected (Passable Route)", "time_normal_min": 4.9, "time_flood_min": 4.9, "delay_ratio": 1.0 }, "geometry": { "type": "Point", "coordinates": [ 80.0631045, 12.9472093 ] } },
{ "type": "Feature", "properties": { "element": "node", "id": 331918549, "name": "Somangalam", "place": "village", "population": null, "settlement_id": "sett_56", "built_exposure": 0.146, "mean_risk": 0.3927, "exposure_units": 1460.0, "status": "Connected (Passable Route)", "time_normal_min": 0.8, "time_flood_min": 0.8, "delay_ratio": 1.0 }, "geometry": { "type": "Point", "coordinates": [ 80.0341452, 12.9482883 ] } },
{ "type": "Feature", "properties": { "element": "node", "id": 332004187, "name": "Vazhuthalambedu", "place": "suburb", "population": null, "settlement_id": "sett_57", "built_exposure": 0.9548, "mean_risk": 0.557, "exposure_units": 9548.0, "status": "Isolated (Hospital Cut Off)", "time_normal_min": 7.1, "time_flood_min": null, "delay_ratio": null }, "geometry": { "type": "Point", "coordinates": [ 80.0989673, 12.97315 ] } },
{ "type": "Feature", "properties": { "element": "node", "id": 332381569, "name": "Alapakkam", "place": "locality", "population": null, "settlement_id": "sett_58", "built_exposure": 0.7482, "mean_risk": 0.4226, "exposure_units": 7482.0, "status": "Connected (Passable Route)", "time_normal_min": 7.6, "time_flood_min": 7.6, "delay_ratio": 1.0 }, "geometry": { "type": "Point", "coordinates": [ 80.1113742, 12.8847195 ] } },
{ "type": "Feature", "properties": { "element": "node", "id": 332382631, "name": "Oriole", "place": "locality", "population": null, "settlement_id": "sett_59", "built_exposure": 0.98, "mean_risk": 0.5262, "exposure_units": 9800.0, "status": "Severely Delayed (≥2x Normal Time)", "time_normal_min": 6.1, "time_flood_min": 18.9, "delay_ratio": 3.11 }, "geometry": { "type": "Point", "coordinates": [ 80.1325965, 12.873639 ] } },
{ "type": "Feature", "properties": { "element": "node", "id": 332382632, "name": "Vengambakkam", "place": "locality", "population": null, "settlement_id": "sett_60", "built_exposure": 0.98, "mean_risk": 0.5121, "exposure_units": 9800.0, "status": "Severely Delayed (≥2x Normal Time)", "time_normal_min": 7.7, "time_flood_min": 17.6, "delay_ratio": 2.29 }, "geometry": { "type": "Point", "coordinates": [ 80.1273273, 12.8678177 ] } },
{ "type": "Feature", "properties": { "element": "node", "id": 332382930, "name": "Rathinamangalam", "place": "suburb", "population": null, "settlement_id": "sett_61", "built_exposure": 0.98, "mean_risk": 0.5425, "exposure_units": 9800.0, "status": "Severely Delayed (≥2x Normal Time)", "time_normal_min": 6.3, "time_flood_min": 34.4, "delay_ratio": 5.49 }, "geometry": { "type": "Point", "coordinates": [ 80.1316425, 12.8585268 ] } },
{ "type": "Feature", "properties": { "element": "node", "id": 332382931, "name": "Kandigai", "place": "suburb", "population": null, "settlement_id": "sett_62", "built_exposure": 0.98, "mean_risk": 0.5588, "exposure_units": 9800.0, "status": "Severely Delayed (≥2x Normal Time)", "time_normal_min": 4.7, "time_flood_min": 44.7, "delay_ratio": 9.48 }, "geometry": { "type": "Point", "coordinates": [ 80.1402727, 12.8495031 ] } },
{ "type": "Feature", "properties": { "element": "node", "id": 335747491, "name": "Vinoba Nagar", "place": "locality", "population": null, "settlement_id": "sett_63", "built_exposure": 0.8277, "mean_risk": 0.5725, "exposure_units": 8277.0, "status": "Severely Delayed (≥2x Normal Time)", "time_normal_min": 2.2, "time_flood_min": 17.9, "delay_ratio": 8.16 }, "geometry": { "type": "Point", "coordinates": [ 80.1283363, 12.9139174 ] } },
{ "type": "Feature", "properties": { "element": "node", "id": 335748452, "name": "Kovilanchery", "place": "suburb", "population": null, "settlement_id": "sett_64", "built_exposure": 0.2544, "mean_risk": 0.5125, "exposure_units": 2544.0, "status": "Connected (Passable Route)", "time_normal_min": 3.9, "time_flood_min": 3.9, "delay_ratio": 1.0 }, "geometry": { "type": "Point", "coordinates": [ 80.1688055, 12.8813093 ] } },
{ "type": "Feature", "properties": { "element": "node", "id": 335748740, "name": "Ponmar", "place": "suburb", "population": null, "settlement_id": "sett_65", "built_exposure": 0.2606, "mean_risk": 0.498, "exposure_units": 2606.0, "status": "Connected (Passable Route)", "time_normal_min": 4.8, "time_flood_min": 4.8, "delay_ratio": 1.0 }, "geometry": { "type": "Point", "coordinates": [ 80.1714689, 12.8572791 ] } },
{ "type": "Feature", "properties": { "element": "node", "id": 335749107, "name": "Balaji Nagar", "place": "neighbourhood", "population": null, "settlement_id": "sett_66", "built_exposure": 0.3975, "mean_risk": 0.4525, "exposure_units": 3975.0, "status": "Connected (Passable Route)", "time_normal_min": 2.6, "time_flood_min": 3.9, "delay_ratio": 1.52 }, "geometry": { "type": "Point", "coordinates": [ 80.14521, 12.9087545 ] } },
{ "type": "Feature", "properties": { "element": "node", "id": 335750561, "name": "Srinivasa Nagar", "place": "locality", "population": null, "settlement_id": "sett_67", "built_exposure": 0.28, "mean_risk": 0.4722, "exposure_units": 2800.0000000000005, "status": "Connected (Passable Route)", "time_normal_min": 0.6, "time_flood_min": 0.6, "delay_ratio": 1.0 }, "geometry": { "type": "Point", "coordinates": [ 80.1575187, 12.9127712 ] } },
{ "type": "Feature", "properties": { "element": "node", "id": 335750854, "name": "Noothanchery", "place": "suburb", "population": null, "settlement_id": "sett_68", "built_exposure": 0.2176, "mean_risk": 0.4709, "exposure_units": 2176.0, "status": "Connected (Passable Route)", "time_normal_min": 3.2, "time_flood_min": 3.8, "delay_ratio": 1.2 }, "geometry": { "type": "Point", "coordinates": [ 80.1704841, 12.8967172 ] } },
{ "type": "Feature", "properties": { "element": "node", "id": 335753159, "name": "Ottiambakkam", "place": "suburb", "population": null, "settlement_id": "sett_69", "built_exposure": 0.1302, "mean_risk": 0.434, "exposure_units": 1302.0, "status": "Connected (Passable Route)", "time_normal_min": 6.9, "time_flood_min": 9.0, "delay_ratio": 1.3 }, "geometry": { "type": "Point", "coordinates": [ 80.191851, 12.8610723 ] } },
{ "type": "Feature", "properties": { "element": "node", "id": 335755162, "name": "Karanai", "place": "suburb", "population": null, "settlement_id": "sett_70", "built_exposure": 0.0591, "mean_risk": 0.4763, "exposure_units": 591.0, "status": "Connected (Passable Route)", "time_normal_min": 8.5, "time_flood_min": 9.5, "delay_ratio": 1.11 }, "geometry": { "type": "Point", "coordinates": [ 80.2005344, 12.8573272 ] } },
{ "type": "Feature", "properties": { "element": "node", "id": 335755198, "name": "Siruseri", "place": "suburb", "population": null, "settlement_id": "sett_71", "built_exposure": 0.1824, "mean_risk": 0.529, "exposure_units": 1824.0, "status": "Connected (Passable Route)", "time_normal_min": 14.3, "time_flood_min": 14.3, "delay_ratio": 1.0 }, "geometry": { "type": "Point", "coordinates": [ 80.209441, 12.831486 ] } },
{ "type": "Feature", "properties": { "element": "node", "id": 335755630, "name": "Veerabadhra Nagar", "place": "neighbourhood", "population": null, "settlement_id": "sett_72", "built_exposure": 0.0806, "mean_risk": 0.4946, "exposure_units": 806.0, "status": "Connected (Passable Route)", "time_normal_min": 2.9, "time_flood_min": 2.9, "delay_ratio": 1.0 }, "geometry": { "type": "Point", "coordinates": [ 80.1890144, 12.9062546 ] } },
{ "type": "Feature", "properties": { "element": "node", "id": 335757346, "name": "Pudupakkam", "place": "suburb", "population": null, "settlement_id": "sett_73", "built_exposure": 0.2012, "mean_risk": 0.4986, "exposure_units": 2012.0, "status": "Connected (Passable Route)", "time_normal_min": 18.6, "time_flood_min": 18.6, "delay_ratio": 1.0 }, "geometry": { "type": "Point", "coordinates": [ 80.2023055, 12.8097819 ] } },
{ "type": "Feature", "properties": { "element": "node", "id": 335758183, "name": "Thazhambur", "place": "suburb", "population": null, "settlement_id": "sett_74", "built_exposure": 0.0835, "mean_risk": 0.5014, "exposure_units": 835.0, "status": "Connected (Passable Route)", "time_normal_min": 11.0, "time_flood_min": 11.0, "delay_ratio": 1.0 }, "geometry": { "type": "Point", "coordinates": [ 80.2088826, 12.8492049 ] } },
{ "type": "Feature", "properties": { "element": "node", "id": 340082429, "name": "Venkataraman Nagar", "place": "neighbourhood", "population": null, "settlement_id": "sett_75", "built_exposure": 0.2015, "mean_risk": 0.4879, "exposure_units": 2015.0000000000002, "status": "Connected (Passable Route)", "time_normal_min": 1.1, "time_flood_min": 1.1, "delay_ratio": 1.0 }, "geometry": { "type": "Point", "coordinates": [ 80.1468846, 12.9382136 ] } },
{ "type": "Feature", "properties": { "element": "node", "id": 340356305, "name": "Manimangalam", "place": "village", "population": null, "settlement_id": "sett_76", "built_exposure": 0.1609, "mean_risk": 0.398, "exposure_units": 1608.9999999999998, "status": "Connected (Passable Route)", "time_normal_min": 5.7, "time_flood_min": 5.7, "delay_ratio": 1.0 }, "geometry": { "type": "Point", "coordinates": [ 80.0412449, 12.916831 ] } },
{ "type": "Feature", "properties": { "element": "node", "id": 340357907, "name": "Karasangal", "place": "suburb", "population": null, "settlement_id": "sett_77", "built_exposure": 0.1109, "mean_risk": 0.4029, "exposure_units": 1109.0, "status": "Connected (Passable Route)", "time_normal_min": 8.3, "time_flood_min": 8.3, "delay_ratio": 1.0 }, "geometry": { "type": "Point", "coordinates": [ 80.0440183, 12.896871 ] } },
{ "type": "Feature", "properties": { "element": "node", "id": 340358334, "name": "Mannivakkam", "place": "suburb", "population": null, "settlement_id": "sett_78", "built_exposure": 0.2109, "mean_risk": 0.3859, "exposure_units": 2109.0, "status": "Connected (Passable Route)", "time_normal_min": 3.2, "time_flood_min": 3.2, "delay_ratio": 1.0 }, "geometry": { "type": "Point", "coordinates": [ 80.0652271, 12.8943694 ] } },
{ "type": "Feature", "properties": { "element": "node", "id": 340358380, "name": "Ram Nagar", "place": "locality", "population": null, "settlement_id": "sett_79", "built_exposure": 0.1387, "mean_risk": 0.2989, "exposure_units": 1387.0, "status": "Connected (Passable Route)", "time_normal_min": 3.9, "time_flood_min": 3.9, "delay_ratio": 1.0 }, "geometry": { "type": "Point", "coordinates": [ 80.0650983, 12.8919242 ] } },
{ "type": "Feature", "properties": { "element": "node", "id": 340358501, "name": "Shanmuga Nagar", "place": "locality", "population": null, "settlement_id": "sett_80", "built_exposure": 0.0805, "mean_risk": 0.4063, "exposure_units": 805.0, "status": "Connected (Passable Route)", "time_normal_min": 4.1, "time_flood_min": 4.1, "delay_ratio": 1.0 }, "geometry": { "type": "Point", "coordinates": [ 80.0630899, 12.8968877 ] } },
{ "type": "Feature", "properties": { "element": "node", "id": 340359305, "name": "Samathuvapuram", "place": "locality", "population": null, "settlement_id": "sett_81", "built_exposure": 0.1952, "mean_risk": 0.4216, "exposure_units": 1952.0000000000002, "status": "Connected (Passable Route)", "time_normal_min": 7.6, "time_flood_min": 7.6, "delay_ratio": 1.0 }, "geometry": { "type": "Point", "coordinates": [ 80.0418726, 12.8902864 ] } },
{ "type": "Feature", "properties": { "element": "node", "id": 340359308, "name": "MGR Nagar", "place": "locality", "population": null, "settlement_id": "sett_82", "built_exposure": 0.1576, "mean_risk": 0.3835, "exposure_units": 1576.0, "status": "Connected (Passable Route)", "time_normal_min": 6.5, "time_flood_min": 6.5, "delay_ratio": 1.0 }, "geometry": { "type": "Point", "coordinates": [ 80.0421043, 12.8942774 ] } },
{ "type": "Feature", "properties": { "element": "node", "id": 401786624, "name": "AGS Officers Colony", "place": "neighbourhood", "population": null, "settlement_id": "sett_83", "built_exposure": 0.9758, "mean_risk": 0.6657, "exposure_units": 9758.0, "status": "Isolated (Hospital Cut Off)", "time_normal_min": 10.8, "time_flood_min": null, "delay_ratio": null }, "geometry": { "type": "Point", "coordinates": [ 80.2097046, 12.9789702 ] } },
{ "type": "Feature", "properties": { "element": "node", "id": 402294609, "name": "Naduveerapattu", "place": "village", "population": null, "settlement_id": "sett_84", "built_exposure": 0.0859, "mean_risk": 0.5005, "exposure_units": 859.0, "status": "Connected (Passable Route)", "time_normal_min": 4.3, "time_flood_min": 7.5, "delay_ratio": 1.72 }, "geometry": { "type": "Point", "coordinates": [ 80.055865, 12.9380331 ] } },
{ "type": "Feature", "properties": { "element": "node", "id": 402947915, "name": "Chettinad Enclave", "place": "locality", "population": null, "settlement_id": "sett_85", "built_exposure": 0.01, "mean_risk": 0.6748, "exposure_units": 100.0, "status": "Isolated (Hospital Cut Off)", "time_normal_min": 5.9, "time_flood_min": null, "delay_ratio": null }, "geometry": { "type": "Point", "coordinates": [ 80.2019131, 12.9417495 ] } },
{ "type": "Feature", "properties": { "element": "node", "id": 402947917, "name": "Maxworth Nagar", "place": "neighbourhood", "population": null, "settlement_id": "sett_86", "built_exposure": 0.01, "mean_risk": 0.5956, "exposure_units": 100.0, "status": "Severely Delayed (≥2x Normal Time)", "time_normal_min": 4.6, "time_flood_min": 30.7, "delay_ratio": 6.74 }, "geometry": { "type": "Point", "coordinates": [ 80.1994903, 12.9439172 ] } },
{ "type": "Feature", "properties": { "element": "node", "id": 402979599, "name": "Nookampalayam", "place": "suburb", "population": null, "settlement_id": "sett_87", "built_exposure": 0.1648, "mean_risk": 0.4632, "exposure_units": 1648.0, "status": "Connected (Passable Route)", "time_normal_min": 4.7, "time_flood_min": 4.7, "delay_ratio": 1.0 }, "geometry": { "type": "Point", "coordinates": [ 80.2018925, 12.8842524 ] } },
{ "type": "Feature", "properties": { "element": "node", "id": 826126983, "name": "Karayambedu", "place": "village", "population": null, "settlement_id": "sett_88", "built_exposure": 0.3244, "mean_risk": 0.4425, "exposure_units": 3244.0, "status": "Connected (Passable Route)", "time_normal_min": 1.8, "time_flood_min": 1.8, "delay_ratio": 1.0 }, "geometry": { "type": "Point", "coordinates": [ 80.0736034, 12.8077914 ] } },
{ "type": "Feature", "properties": { "element": "node", "id": 964604382, "name": "Pallikaranai", "place": "suburb", "population": null, "settlement_id": "sett_89", "built_exposure": 0.01, "mean_risk": 0.6931, "exposure_units": 100.0, "status": "Isolated (Hospital Cut Off)", "time_normal_min": 5.5, "time_flood_min": null, "delay_ratio": null }, "geometry": { "type": "Point", "coordinates": [ 80.2077692, 12.9304748 ] } },
{ "type": "Feature", "properties": { "element": "node", "id": 964604614, "name": "Nemilichery", "place": "neighbourhood", "population": null, "settlement_id": "sett_90", "built_exposure": 0.1459, "mean_risk": 0.3976, "exposure_units": 1459.0, "status": "Connected (Passable Route)", "time_normal_min": 4.0, "time_flood_min": 4.0, "delay_ratio": 1.0 }, "geometry": { "type": "Point", "coordinates": [ 80.1637154, 12.9460425 ] } },
{ "type": "Feature", "properties": { "element": "node", "id": 978454328, "name": "Kuberan Nagar", "place": "neighbourhood", "population": null, "settlement_id": "sett_91", "built_exposure": 0.8156, "mean_risk": 0.6415, "exposure_units": 8156.0, "status": "Isolated (Hospital Cut Off)", "time_normal_min": 10.0, "time_flood_min": null, "delay_ratio": null }, "geometry": { "type": "Point", "coordinates": [ 80.2062346, 12.9574931 ] } },
{ "type": "Feature", "properties": { "element": "node", "id": 1180849770, "name": "Potheri", "place": "village", "population": null, "settlement_id": "sett_92", "built_exposure": 0.9383, "mean_risk": 0.4989, "exposure_units": 9383.0, "status": "Isolated (Hospital Cut Off)", "time_normal_min": 15.1, "time_flood_min": null, "delay_ratio": null }, "geometry": { "type": "Point", "coordinates": [ 80.0384192, 12.8183263 ] } },
{ "type": "Feature", "properties": { "element": "node", "id": 1180849771, "name": "Kattangulathur", "place": "village", "population": null, "settlement_id": "sett_93", "built_exposure": 0.7213, "mean_risk": 0.3024, "exposure_units": 7213.0000000000009, "status": "Severely Delayed (≥2x Normal Time)", "time_normal_min": 13.7, "time_flood_min": 32.9, "delay_ratio": 2.39 }, "geometry": { "type": "Point", "coordinates": [ 80.030186, 12.8081092 ] } },
{ "type": "Feature", "properties": { "element": "node", "id": 1180849775, "name": "Urapakkam", "place": "suburb", "population": null, "settlement_id": "sett_94", "built_exposure": 0.1016, "mean_risk": 0.3342, "exposure_units": 1016.0, "status": "Connected (Passable Route)", "time_normal_min": 2.9, "time_flood_min": 2.9, "delay_ratio": 1.0 }, "geometry": { "type": "Point", "coordinates": [ 80.0721616, 12.8636676 ] } },
{ "type": "Feature", "properties": { "element": "node", "id": 1180849778, "name": "Guduvancheri", "place": "village", "population": null, "settlement_id": "sett_95", "built_exposure": 0.3122, "mean_risk": 0.4071, "exposure_units": 3122.0, "status": "Connected (Passable Route)", "time_normal_min": 0.1, "time_flood_min": 0.1, "delay_ratio": 1.0 }, "geometry": { "type": "Point", "coordinates": [ 80.0608336, 12.8439952 ] } },
{ "type": "Feature", "properties": { "element": "node", "id": 1317142941, "name": "Sheela Nagar", "place": "neighbourhood", "population": null, "settlement_id": "sett_96", "built_exposure": 0.9447, "mean_risk": 0.6602, "exposure_units": 9447.0, "status": "Isolated (Hospital Cut Off)", "time_normal_min": 5.2, "time_flood_min": null, "delay_ratio": null }, "geometry": { "type": "Point", "coordinates": [ 80.2020747, 12.9650499 ] } },
{ "type": "Feature", "properties": { "element": "node", "id": 1317143256, "name": "Ramalinga Nagar", "place": "neighbourhood", "population": null, "settlement_id": "sett_97", "built_exposure": 0.98, "mean_risk": 0.6621, "exposure_units": 9800.0, "status": "Isolated (Hospital Cut Off)", "time_normal_min": 10.2, "time_flood_min": null, "delay_ratio": null }, "geometry": { "type": "Point", "coordinates": [ 80.2058513, 12.9675942 ] } },
{ "type": "Feature", "properties": { "element": "node", "id": 1329325017, "name": "Jayachandran Nagar", "place": "locality", "population": null, "settlement_id": "sett_98", "built_exposure": 0.01, "mean_risk": 0.7176, "exposure_units": 100.0, "status": "Isolated (Hospital Cut Off)", "time_normal_min": 2.6, "time_flood_min": null, "delay_ratio": null }, "geometry": { "type": "Point", "coordinates": [ 80.1987877, 12.9216334 ] } },
{ "type": "Feature", "properties": { "element": "node", "id": 1370961492, "name": "Nandhivaram", "place": "locality", "population": null, "settlement_id": "sett_99", "built_exposure": 0.4023, "mean_risk": 0.4073, "exposure_units": 4023.0, "status": "Connected (Passable Route)", "time_normal_min": 0.8, "time_flood_min": 0.8, "delay_ratio": 1.0 }, "geometry": { "type": "Point", "coordinates": [ 80.0653482, 12.840725 ] } },
{ "type": "Feature", "properties": { "element": "node", "id": 1636177745, "name": "Madura Kali Nagar", "place": "neighbourhood", "population": null, "settlement_id": "sett_100", "built_exposure": 0.6267, "mean_risk": 0.6141, "exposure_units": 6267.0, "status": "Isolated (Hospital Cut Off)", "time_normal_min": 5.6, "time_flood_min": null, "delay_ratio": null }, "geometry": { "type": "Point", "coordinates": [ 80.1938321, 12.9580319 ] } },
{ "type": "Feature", "properties": { "element": "node", "id": 1693509502, "name": "VGP Santhanammal Nagar", "place": "locality", "population": null, "settlement_id": "sett_101", "built_exposure": 0.1024, "mean_risk": 0.4271, "exposure_units": 1024.0, "status": "Connected (Passable Route)", "time_normal_min": 2.3, "time_flood_min": 2.3, "delay_ratio": 1.0 }, "geometry": { "type": "Point", "coordinates": [ 80.1689022, 12.9212802 ] } },
{ "type": "Feature", "properties": { "element": "node", "id": 1693541848, "name": "Heritage Jayendra Nagar", "place": "neighbourhood", "population": null, "settlement_id": "sett_102", "built_exposure": 0.2289, "mean_risk": 0.5148, "exposure_units": 2289.0, "status": "Connected (Passable Route)", "time_normal_min": 0.7, "time_flood_min": 0.7, "delay_ratio": 1.0 }, "geometry": { "type": "Point", "coordinates": [ 80.1647479, 12.9345186 ] } },
{ "type": "Feature", "properties": { "element": "node", "id": 1760697495, "name": "Karthikeyapuram", "place": "neighbourhood", "population": null, "settlement_id": "sett_103", "built_exposure": 0.7701, "mean_risk": 0.6323, "exposure_units": 7701.0, "status": "Isolated (Hospital Cut Off)", "time_normal_min": 4.0, "time_flood_min": null, "delay_ratio": null }, "geometry": { "type": "Point", "coordinates": [ 80.1945242, 12.9625935 ] } },
{ "type": "Feature", "properties": { "element": "node", "id": 1760699733, "name": "Park Square colony", "place": "neighbourhood", "population": null, "settlement_id": "sett_104", "built_exposure": 0.7299, "mean_risk": 0.6295, "exposure_units": 7299.0, "status": "Isolated (Hospital Cut Off)", "time_normal_min": 2.7, "time_flood_min": null, "delay_ratio": null }, "geometry": { "type": "Point", "coordinates": [ 80.1934861, 12.9656647 ] } },
{ "type": "Feature", "properties": { "element": "node", "id": 2210037955, "name": "Skylab Avenue", "place": "neighbourhood", "population": null, "settlement_id": "sett_105", "built_exposure": 0.1929, "mean_risk": 0.4555, "exposure_units": 1928.9999999999998, "status": "Connected (Passable Route)", "time_normal_min": 0.2, "time_flood_min": 0.2, "delay_ratio": 1.0 }, "geometry": { "type": "Point", "coordinates": [ 80.1841392, 12.8921028 ] } },
{ "type": "Feature", "properties": { "element": "node", "id": 2210077654, "name": "Skylab Avenue", "place": "locality", "population": null, "settlement_id": "sett_106", "built_exposure": 0.0919, "mean_risk": 0.4641, "exposure_units": 919.0, "status": "Connected (Passable Route)", "time_normal_min": 0.3, "time_flood_min": 0.3, "delay_ratio": 1.0 }, "geometry": { "type": "Point", "coordinates": [ 80.1847733, 12.8930443 ] } },
{ "type": "Feature", "properties": { "element": "node", "id": 2481011869, "name": "Rajaji Nagar", "place": "locality", "population": null, "settlement_id": "sett_107", "built_exposure": 0.3209, "mean_risk": 0.4644, "exposure_units": 3209.0, "status": "Connected (Passable Route)", "time_normal_min": 0.8, "time_flood_min": 0.8, "delay_ratio": 1.0 }, "geometry": { "type": "Point", "coordinates": [ 80.077893, 12.8140547 ] } },
{ "type": "Feature", "properties": { "element": "node", "id": 3263004961, "name": "Vardhaman Nagar", "place": "neighbourhood", "population": null, "settlement_id": "sett_108", "built_exposure": 0.1344, "mean_risk": 0.3376, "exposure_units": 1344.0, "status": "Connected (Passable Route)", "time_normal_min": 0.8, "time_flood_min": 0.8, "delay_ratio": 1.0 }, "geometry": { "type": "Point", "coordinates": [ 80.062308, 12.867816 ] } },
{ "type": "Feature", "properties": { "element": "node", "id": 4089493731, "name": "Nanmangalam", "place": "neighbourhood", "population": null, "settlement_id": "sett_109", "built_exposure": 0.2074, "mean_risk": 0.4658, "exposure_units": 2074.0, "status": "Connected (Passable Route)", "time_normal_min": 0.8, "time_flood_min": 0.8, "delay_ratio": 1.0 }, "geometry": { "type": "Point", "coordinates": [ 80.1774249, 12.9374309 ] } },
{ "type": "Feature", "properties": { "element": "node", "id": 6129385262, "name": "TVS Green Hills", "place": "locality", "population": null, "settlement_id": "sett_110", "built_exposure": 0.8133, "mean_risk": 0.361, "exposure_units": 8133.0, "status": "Connected (Passable Route)", "time_normal_min": 7.4, "time_flood_min": 7.4, "delay_ratio": 1.0 }, "geometry": { "type": "Point", "coordinates": [ 80.1124616, 12.8907001 ] } },
{ "type": "Feature", "properties": { "element": "node", "id": 6129432715, "name": "SSM Nagar", "place": "suburb", "population": null, "settlement_id": "sett_111", "built_exposure": 0.924, "mean_risk": 0.4848, "exposure_units": 9240.0, "status": "Connected (Passable Route)", "time_normal_min": 5.7, "time_flood_min": 5.8, "delay_ratio": 1.02 }, "geometry": { "type": "Point", "coordinates": [ 80.116708, 12.8924546 ] } },
{ "type": "Feature", "properties": { "element": "node", "id": 9787595230, "name": "Arul Nagar", "place": "neighbourhood", "population": null, "settlement_id": "sett_112", "built_exposure": 0.9063, "mean_risk": 0.4008, "exposure_units": 9063.0, "status": "Connected (Passable Route)", "time_normal_min": 6.2, "time_flood_min": 7.9, "delay_ratio": 1.28 }, "geometry": { "type": "Point", "coordinates": [ 80.1112622, 12.9074664 ] } },
{ "type": "Feature", "properties": { "element": "node", "id": 9902413099, "name": "Old Pallavaram", "place": "suburb", "population": null, "settlement_id": "sett_113", "built_exposure": 0.2279, "mean_risk": 0.3412, "exposure_units": 2279.0, "status": "Connected (Passable Route)", "time_normal_min": 4.2, "time_flood_min": 4.2, "delay_ratio": 1.0 }, "geometry": { "type": "Point", "coordinates": [ 80.1665389, 12.9633042 ] } },
{ "type": "Feature", "properties": { "element": "node", "id": 11013328843, "name": "Mambakkam", "place": "suburb", "population": null, "settlement_id": "sett_114", "built_exposure": 0.4136, "mean_risk": 0.5281, "exposure_units": 4136.0, "status": "Connected (Passable Route)", "time_normal_min": 1.8, "time_flood_min": 1.8, "delay_ratio": 1.0 }, "geometry": { "type": "Point", "coordinates": [ 80.1689782, 12.8360136 ] } },
{ "type": "Feature", "properties": { "element": "node", "id": 11013328844, "name": "Keezhakottaiyur", "place": "suburb", "population": null, "settlement_id": "sett_115", "built_exposure": 0.7398, "mean_risk": 0.5494, "exposure_units": 7398.0, "status": "Severely Delayed (≥2x Normal Time)", "time_normal_min": 2.6, "time_flood_min": 18.1, "delay_ratio": 7.01 }, "geometry": { "type": "Point", "coordinates": [ 80.150937, 12.8424787 ] } },
{ "type": "Feature", "properties": { "element": "node", "id": 11013328845, "name": "Melakottaiyur", "place": "suburb", "population": null, "settlement_id": "sett_116", "built_exposure": 0.774, "mean_risk": 0.5726, "exposure_units": 7740.0, "status": "Severely Delayed (≥2x Normal Time)", "time_normal_min": 4.7, "time_flood_min": 47.5, "delay_ratio": 10.01 }, "geometry": { "type": "Point", "coordinates": [ 80.1481237, 12.8464091 ] } },
{ "type": "Feature", "properties": { "element": "node", "id": 11013412995, "name": "Aurum Villas by Pacifica", "place": "neighbourhood", "population": null, "settlement_id": "sett_117", "built_exposure": 0.1192, "mean_risk": 0.451, "exposure_units": 1192.0, "status": "Isolated (Hospital Cut Off)", "time_normal_min": null, "time_flood_min": null, "delay_ratio": null }, "geometry": { "type": "Point", "coordinates": [ 80.2141088, 12.8068992 ] } },
{ "type": "Feature", "properties": { "element": "node", "id": 11014847700, "name": "Kumizhi", "place": "village", "population": null, "settlement_id": "sett_118", "built_exposure": 0.4066, "mean_risk": 0.5271, "exposure_units": 4066.0, "status": "Severely Delayed (≥2x Normal Time)", "time_normal_min": 14.0, "time_flood_min": 28.5, "delay_ratio": 2.04 }, "geometry": { "type": "Point", "coordinates": [ 80.1228794, 12.8002759 ] } },
{ "type": "Feature", "properties": { "element": "node", "id": 11014895006, "name": "Kannivakkam", "place": "village", "population": null, "settlement_id": "sett_119", "built_exposure": 0.1533, "mean_risk": 0.4342, "exposure_units": 1533.0, "status": "Connected (Passable Route)", "time_normal_min": 4.7, "time_flood_min": 4.7, "delay_ratio": 1.0 }, "geometry": { "type": "Point", "coordinates": [ 80.0911928, 12.8111739 ] } },
{ "type": "Feature", "properties": { "element": "node", "id": 11148027551, "name": "Serene Avenue", "place": "neighbourhood", "population": null, "settlement_id": "sett_120", "built_exposure": 0.1774, "mean_risk": 0.4647, "exposure_units": 1774.0, "status": "Connected (Passable Route)", "time_normal_min": 6.2, "time_flood_min": 6.2, "delay_ratio": 1.0 }, "geometry": { "type": "Point", "coordinates": [ 80.1710972, 12.8607589 ] } },
{ "type": "Feature", "properties": { "element": "node", "id": 12534285821, "name": "Kamatchi Nagar", "place": "neighbourhood", "population": null, "settlement_id": "sett_121", "built_exposure": 0.5084, "mean_risk": 0.6024, "exposure_units": 5084.0, "status": "Isolated (Hospital Cut Off)", "time_normal_min": 7.9, "time_flood_min": null, "delay_ratio": null }, "geometry": { "type": "Point", "coordinates": [ 80.2158648, 12.9445831 ] } },
{ "type": "Feature", "properties": { "element": "node", "id": 12534286145, "name": "Kamakoti Nagar", "place": "neighbourhood", "population": null, "settlement_id": "sett_122", "built_exposure": 0.388, "mean_risk": 0.5843, "exposure_units": 3880.0, "status": "Isolated (Hospital Cut Off)", "time_normal_min": 7.1, "time_flood_min": null, "delay_ratio": null }, "geometry": { "type": "Point", "coordinates": [ 80.2132684, 12.9410358 ] } },
{ "type": "Feature", "properties": { "element": "node", "id": 13277610183, "name": "New Colony", "place": "neighbourhood", "population": null, "settlement_id": "sett_123", "built_exposure": 0.4248, "mean_risk": 0.3737, "exposure_units": 4248.0, "status": "Connected (Passable Route)", "time_normal_min": 0.1, "time_flood_min": 0.1, "delay_ratio": 1.0 }, "geometry": { "type": "Point", "coordinates": [ 80.1364482, 12.9512943 ] } },
{ "type": "Feature", "properties": { "element": "node", "id": 14031488244, "name": "Kilambakkam", "place": "suburb", "population": null, "settlement_id": "sett_124", "built_exposure": 0.2186, "mean_risk": 0.3789, "exposure_units": 2186.0, "status": "Connected (Passable Route)", "time_normal_min": 5.4, "time_flood_min": 5.4, "delay_ratio": 1.0 }, "geometry": { "type": "Point", "coordinates": [ 80.0773586, 12.8737712 ] } },
{ "type": "Feature", "properties": { "element": "node", "id": 14038759248, "name": "Neelamangalam", "place": "suburb", "population": null, "settlement_id": "sett_125", "built_exposure": 0.2513, "mean_risk": 0.405, "exposure_units": 2513.0000000000005, "status": "Connected (Passable Route)", "time_normal_min": 3.6, "time_flood_min": 3.6, "delay_ratio": 1.0 }, "geometry": { "type": "Point", "coordinates": [ 80.0415025, 12.8558158 ] } },
{ "type": "Feature", "properties": { "element": "node", "id": 14038759249, "name": "Adhanur", "place": "suburb", "population": null, "settlement_id": "sett_126", "built_exposure": 0.1261, "mean_risk": 0.2957, "exposure_units": 1261.0, "status": "Connected (Passable Route)", "time_normal_min": 3.0, "time_flood_min": 3.0, "delay_ratio": 1.0 }, "geometry": { "type": "Point", "coordinates": [ 80.0506885, 12.8724625 ] } },
{ "type": "Feature", "properties": { "element": "node", "id": 14041638035, "name": "Kovilambakkam", "place": "suburb", "population": null, "settlement_id": "sett_127", "built_exposure": 0.2651, "mean_risk": 0.4613, "exposure_units": 2651.0, "status": "Connected (Passable Route)", "time_normal_min": 0.4, "time_flood_min": 0.4, "delay_ratio": 1.0 }, "geometry": { "type": "Point", "coordinates": [ 80.179988, 12.9406821 ] } },
{ "type": "Feature", "properties": { "element": "node", "id": 14041638036, "name": "Echangadu", "place": "suburb", "population": null, "settlement_id": "sett_128", "built_exposure": 0.3858, "mean_risk": 0.5268, "exposure_units": 3857.9999999999995, "status": "Severely Delayed (≥2x Normal Time)", "time_normal_min": 3.2, "time_flood_min": 15.6, "delay_ratio": 4.93 }, "geometry": { "type": "Point", "coordinates": [ 80.1839213, 12.9480726 ] } },
{ "type": "Feature", "properties": { "element": "node", "id": 14045532122, "name": "Thiruvanchery", "place": "suburb", "population": null, "settlement_id": "sett_129", "built_exposure": 0.6234, "mean_risk": 0.5004, "exposure_units": 6233.9999999999991, "status": "Connected (Passable Route)", "time_normal_min": 1.6, "time_flood_min": 1.6, "delay_ratio": 1.0 }, "geometry": { "type": "Point", "coordinates": [ 80.1402996, 12.8957047 ] } },
{ "type": "Feature", "properties": { "element": "node", "id": 14045532123, "name": "Mappedu", "place": "suburb", "population": null, "settlement_id": "sett_130", "built_exposure": 0.7605, "mean_risk": 0.5685, "exposure_units": 7604.9999999999991, "status": "Severely Delayed (≥2x Normal Time)", "time_normal_min": 2.8, "time_flood_min": 10.1, "delay_ratio": 3.65 }, "geometry": { "type": "Point", "coordinates": [ 80.1375327, 12.8885456 ] } },
{ "type": "Feature", "properties": { "element": "node", "id": 14059858524, "name": "Sembakkam", "place": "suburb", "population": null, "settlement_id": "sett_131", "built_exposure": 0.2362, "mean_risk": 0.493, "exposure_units": 2362.0, "status": "Connected (Passable Route)", "time_normal_min": 3.5, "time_flood_min": 3.5, "delay_ratio": 1.0 }, "geometry": { "type": "Point", "coordinates": [ 80.1596447, 12.927376 ] } },
{ "type": "Feature", "properties": { "element": "node", "id": 14059916525, "name": "Radha Nagar", "place": "neighbourhood", "population": null, "settlement_id": "sett_132", "built_exposure": 0.2772, "mean_risk": 0.3703, "exposure_units": 2772.0, "status": "Connected (Passable Route)", "time_normal_min": 0.3, "time_flood_min": 0.3, "delay_ratio": 1.0 }, "geometry": { "type": "Point", "coordinates": [ 80.1468107, 12.9507804 ] } },
{ "type": "Feature", "properties": { "element": "node", "id": 14221313466, "name": "Vellakkal", "place": "neighbourhood", "population": null, "settlement_id": "sett_133", "built_exposure": 0.2379, "mean_risk": 0.488, "exposure_units": 2379.0, "status": "Connected (Passable Route)", "time_normal_min": 2.0, "time_flood_min": 3.2, "delay_ratio": 1.56 }, "geometry": { "type": "Point", "coordinates": [ 80.1784371, 12.9332524 ] } },
{ "type": "Feature", "properties": { "element": "node", "id": 14224684425, "name": "IOB Colony", "place": "neighbourhood", "population": null, "settlement_id": "sett_134", "built_exposure": 0.4402, "mean_risk": 0.4878, "exposure_units": 4402.0, "status": "Connected (Passable Route)", "time_normal_min": 0.4, "time_flood_min": 0.4, "delay_ratio": 1.0 }, "geometry": { "type": "Point", "coordinates": [ 80.1411846, 12.920805 ] } },
{ "type": "Feature", "properties": { "element": "node", "id": 14224684426, "name": "Padmavathy Nagar", "place": "neighbourhood", "population": null, "settlement_id": "sett_135", "built_exposure": 0.3324, "mean_risk": 0.5117, "exposure_units": 3323.9999999999995, "status": "Connected (Passable Route)", "time_normal_min": 0.6, "time_flood_min": 0.6, "delay_ratio": 1.0 }, "geometry": { "type": "Point", "coordinates": [ 80.1544781, 12.9093303 ] } },
{ "type": "Feature", "properties": { "element": "node", "id": 14224684427, "name": "Yeshwanth Nagar", "place": "neighbourhood", "population": null, "settlement_id": "sett_136", "built_exposure": 0.4437, "mean_risk": 0.4796, "exposure_units": 4437.0, "status": "Connected (Passable Route)", "time_normal_min": 3.2, "time_flood_min": 3.8, "delay_ratio": 1.19 }, "geometry": { "type": "Point", "coordinates": [ 80.1492453, 12.9026688 ] } },
{ "type": "Feature", "properties": { "element": "node", "id": 14224684428, "name": "Barathi Nagar", "place": "neighbourhood", "population": null, "settlement_id": "sett_137", "built_exposure": 0.5096, "mean_risk": 0.5141, "exposure_units": 5096.0000000000009, "status": "Connected (Passable Route)", "time_normal_min": 0.9, "time_flood_min": 0.9, "delay_ratio": 1.0 }, "geometry": { "type": "Point", "coordinates": [ 80.1427093, 12.9185636 ] } },
{ "type": "Feature", "properties": { "element": "way", "id": 297314918, "name": "Rajeswari Nagar", "place": "neighbourhood", "population": null, "settlement_id": "sett_138", "built_exposure": 0.4059, "mean_risk": 0.5308, "exposure_units": 4059.0, "status": "Severely Delayed (≥2x Normal Time)", "time_normal_min": 1.0, "time_flood_min": 2.0, "delay_ratio": 2.02 }, "geometry": { "type": "Point", "coordinates": [ 80.140691630396461, 12.923595544717188 ] } },
{ "type": "Feature", "properties": { "element": "way", "id": 319828746, "name": "Vardhaman Nagar", "place": "suburb", "population": null, "settlement_id": "sett_139", "built_exposure": 0.1005, "mean_risk": 0.3318, "exposure_units": 1005.0000000000001, "status": "Connected (Passable Route)", "time_normal_min": 0.8, "time_flood_min": 0.8, "delay_ratio": 1.0 }, "geometry": { "type": "Point", "coordinates": [ 80.062034982869747, 12.867834789416555 ] } },
{ "type": "Feature", "properties": { "element": "way", "id": 422418168, "name": "Velachery", "place": "suburb", "population": "4646732", "settlement_id": "sett_140", "built_exposure": 0.8367, "mean_risk": 0.6458, "exposure_units": 8367.0, "status": "Isolated (Hospital Cut Off)", "time_normal_min": 8.1, "time_flood_min": null, "delay_ratio": null }, "geometry": { "type": "Point", "coordinates": [ 80.220176547492798, 12.980821188241675 ] } }
]
}
