{
"type": "FeatureCollection",
"name": "top_settlements",
"crs": { "type": "name", "properties": { "name": "urn:ogc:def:crs:OGC:1.3:CRS84" } },
"features": [
{ "type": "Feature", "properties": { "element": "node", "id": 280518793, "name": "Puzhuthivakkam", "place": "suburb", "population": null, "settlement_id": "sett_19", "mean_risk": 0.66420001, "built_exposure": 0.98, "risk_exposure_score": 0.65090001, "risk_tier": "Very High", "rank": 1 }, "geometry": { "type": "Point", "coordinates": [ 80.2062626, 12.9691428 ] } },
{ "type": "Feature", "properties": { "element": "node", "id": 280521508, "name": "Sadasiva Nagar", "place": "neighbourhood", "population": null, "settlement_id": "sett_21", "mean_risk": 0.66369998, "built_exposure": 0.98, "risk_exposure_score": 0.6505, "risk_tier": "Very High", "rank": 2 }, "geometry": { "type": "Point", "coordinates": [ 80.2028543, 12.9651292 ] } },
{ "type": "Feature", "properties": { "element": "node", "id": 401786624, "name": "AGS Officers Colony", "place": "neighbourhood", "population": null, "settlement_id": "sett_83", "mean_risk": 0.66570002, "built_exposure": 0.97579998, "risk_exposure_score": 0.64960003, "risk_tier": "Very High", "rank": 3 }, "geometry": { "type": "Point", "coordinates": [ 80.2097046, 12.9789702 ] } },
{ "type": "Feature", "properties": { "element": "node", "id": 1317143256, "name": "Ramalinga Nagar", "place": "neighbourhood", "population": null, "settlement_id": "sett_97", "mean_risk": 0.66210002, "built_exposure": 0.98, "risk_exposure_score": 0.64889997, "risk_tier": "Very High", "rank": 4 }, "geometry": { "type": "Point", "coordinates": [ 80.2058513, 12.9675942 ] } },
{ "type": "Feature", "properties": { "element": "node", "id": 280521191, "name": "Ram Nagar", "place": "neighbourhood", "population": null, "settlement_id": "sett_20", "mean_risk": 0.65820003, "built_exposure": 0.94950002, "risk_exposure_score": 0.625, "risk_tier": "Very High", "rank": 5 }, "geometry": { "type": "Point", "coordinates": [ 80.2118131, 12.9653558 ] } },
{ "type": "Feature", "properties": { "element": "node", "id": 1317142941, "name": "Sheela Nagar", "place": "neighbourhood", "population": null, "settlement_id": "sett_96", "mean_risk": 0.6602, "built_exposure": 0.9447, "risk_exposure_score": 0.62370002, "risk_tier": "Very High", "rank": 6 }, "geometry": { "type": "Point", "coordinates": [ 80.2020747, 12.9650499 ] } },
{ "type": "Feature", "properties": { "element": "node", "id": 332382931, "name": "Kandigai", "place": "suburb", "population": null, "settlement_id": "sett_62", "mean_risk": 0.55879998, "built_exposure": 0.98, "risk_exposure_score": 0.54759997, "risk_tier": "High", "rank": 7 }, "geometry": { "type": "Point", "coordinates": [ 80.1402727, 12.8495031 ] } },
{ "type": "Feature", "properties": { "element": "way", "id": 422418168, "name": "Velachery", "place": "suburb", "population": "4646732", "settlement_id": "sett_140", "mean_risk": 0.64579999, "built_exposure": 0.83670002, "risk_exposure_score": 0.54030001, "risk_tier": "Very High", "rank": 8 }, "geometry": { "type": "Point", "coordinates": [ 80.220176547492798, 12.980821188241675 ] } },
{ "type": "Feature", "properties": { "element": "node", "id": 332004187, "name": "Vazhuthalambedu", "place": "suburb", "population": null, "settlement_id": "sett_57", "mean_risk": 0.55699998, "built_exposure": 0.95480001, "risk_exposure_score": 0.53179997, "risk_tier": "High", "rank": 9 }, "geometry": { "type": "Point", "coordinates": [ 80.0989673, 12.97315 ] } },
{ "type": "Feature", "properties": { "element": "node", "id": 332382930, "name": "Rathinamangalam", "place": "suburb", "population": null, "settlement_id": "sett_61", "mean_risk": 0.54250002, "built_exposure": 0.98, "risk_exposure_score": 0.5316, "risk_tier": "High", "rank": 10 }, "geometry": { "type": "Point", "coordinates": [ 80.1316425, 12.8585268 ] } },
{ "type": "Feature", "properties": { "element": "node", "id": 278544356, "name": "Madipakkam", "place": "suburb", "population": null, "settlement_id": "sett_16", "mean_risk": 0.64480001, "built_exposure": 0.81209999, "risk_exposure_score": 0.5237, "risk_tier": "Very High", "rank": 11 }, "geometry": { "type": "Point", "coordinates": [ 80.2001292, 12.9611348 ] } },
{ "type": "Feature", "properties": { "element": "node", "id": 978454328, "name": "Kuberan Nagar", "place": "neighbourhood", "population": null, "settlement_id": "sett_91", "mean_risk": 0.6415, "built_exposure": 0.81559998, "risk_exposure_score": 0.52319998, "risk_tier": "Very High", "rank": 12 }, "geometry": { "type": "Point", "coordinates": [ 80.2062346, 12.9574931 ] } },
{ "type": "Feature", "properties": { "element": "node", "id": 332382631, "name": "Oriole", "place": "locality", "population": null, "settlement_id": "sett_59", "mean_risk": 0.5262, "built_exposure": 0.98, "risk_exposure_score": 0.51560003, "risk_tier": "Moderate", "rank": 13 }, "geometry": { "type": "Point", "coordinates": [ 80.1325965, 12.873639 ] } },
{ "type": "Feature", "properties": { "element": "node", "id": 301731218, "name": "Ullagaram", "place": "suburb", "population": null, "settlement_id": "sett_30", "mean_risk": 0.57770002, "built_exposure": 0.87230003, "risk_exposure_score": 0.50389999, "risk_tier": "High", "rank": 14 }, "geometry": { "type": "Point", "coordinates": [ 80.1967196, 12.9765868 ] } },
{ "type": "Feature", "properties": { "element": "node", "id": 256196848, "name": "Tambaram", "place": "city", "population": "174800", "settlement_id": "sett_0", "mean_risk": 0.5564, "built_exposure": 0.903, "risk_exposure_score": 0.50239998, "risk_tier": "High", "rank": 15 }, "geometry": { "type": "Point", "coordinates": [ 80.1150525, 12.9245279 ] } },
{ "type": "Feature", "properties": { "element": "node", "id": 332382632, "name": "Vengambakkam", "place": "locality", "population": null, "settlement_id": "sett_60", "mean_risk": 0.51209998, "built_exposure": 0.98, "risk_exposure_score": 0.5018, "risk_tier": "Moderate", "rank": 16 }, "geometry": { "type": "Point", "coordinates": [ 80.1273273, 12.8678177 ] } },
{ "type": "Feature", "properties": { "element": "node", "id": 1760697495, "name": "Karthikeyapuram", "place": "neighbourhood", "population": null, "settlement_id": "sett_103", "mean_risk": 0.63230002, "built_exposure": 0.7701, "risk_exposure_score": 0.4869, "risk_tier": "Very High", "rank": 17 }, "geometry": { "type": "Point", "coordinates": [ 80.1945242, 12.9625935 ] } },
{ "type": "Feature", "properties": { "element": "node", "id": 335747491, "name": "Vinoba Nagar", "place": "locality", "population": null, "settlement_id": "sett_63", "mean_risk": 0.57249999, "built_exposure": 0.82770002, "risk_exposure_score": 0.4738, "risk_tier": "High", "rank": 18 }, "geometry": { "type": "Point", "coordinates": [ 80.1283363, 12.9139174 ] } },
{ "type": "Feature", "properties": { "element": "node", "id": 1180849770, "name": "Potheri", "place": "village", "population": null, "settlement_id": "sett_92", "mean_risk": 0.4989, "built_exposure": 0.93830001, "risk_exposure_score": 0.46810001, "risk_tier": "Moderate", "rank": 19 }, "geometry": { "type": "Point", "coordinates": [ 80.0384192, 12.8183263 ] } },
{ "type": "Feature", "properties": { "element": "node", "id": 1760699733, "name": "Park Square colony", "place": "neighbourhood", "population": null, "settlement_id": "sett_104", "mean_risk": 0.62949997, "built_exposure": 0.7299, "risk_exposure_score": 0.45950001, "risk_tier": "Very High", "rank": 20 }, "geometry": { "type": "Point", "coordinates": [ 80.1934861, 12.9656647 ] } },
{ "type": "Feature", "properties": { "element": "node", "id": 331910223, "name": "Kannadapalayam", "place": "suburb", "population": null, "settlement_id": "sett_53", "mean_risk": 0.50660002, "built_exposure": 0.90689999, "risk_exposure_score": 0.4594, "risk_tier": "Moderate", "rank": 21 }, "geometry": { "type": "Point", "coordinates": [ 80.1015355, 12.9364364 ] } },
{ "type": "Feature", "properties": { "element": "node", "id": 256203138, "name": "Irumbuliyur", "place": "suburb", "population": null, "settlement_id": "sett_14", "mean_risk": 0.4858, "built_exposure": 0.93290001, "risk_exposure_score": 0.45320001, "risk_tier": "Moderate", "rank": 22 }, "geometry": { "type": "Point", "coordinates": [ 80.1088976, 12.9122029 ] } },
{ "type": "Feature", "properties": { "element": "node", "id": 6129432715, "name": "SSM Nagar", "place": "suburb", "population": null, "settlement_id": "sett_111", "mean_risk": 0.48480001, "built_exposure": 0.92400002, "risk_exposure_score": 0.4479, "risk_tier": "Moderate", "rank": 23 }, "geometry": { "type": "Point", "coordinates": [ 80.116708, 12.8924546 ] } },
{ "type": "Feature", "properties": { "element": "node", "id": 11013328845, "name": "Melakottaiyur", "place": "suburb", "population": null, "settlement_id": "sett_116", "mean_risk": 0.57260001, "built_exposure": 0.774, "risk_exposure_score": 0.44319999, "risk_tier": "High", "rank": 24 }, "geometry": { "type": "Point", "coordinates": [ 80.1481237, 12.8464091 ] } },
{ "type": "Feature", "properties": { "element": "node", "id": 313280567, "name": "Sadanandapuram", "place": "suburb", "population": null, "settlement_id": "sett_47", "mean_risk": 0.5122, "built_exposure": 0.85350001, "risk_exposure_score": 0.43720001, "risk_tier": "Moderate", "rank": 25 }, "geometry": { "type": "Point", "coordinates": [ 80.1097115, 12.8973659 ] } },
{ "type": "Feature", "properties": { "element": "node", "id": 256202982, "name": "Thiruneermalai", "place": "suburb", "population": null, "settlement_id": "sett_12", "mean_risk": 0.53289998, "built_exposure": 0.81480002, "risk_exposure_score": 0.43419999, "risk_tier": "Moderate", "rank": 26 }, "geometry": { "type": "Point", "coordinates": [ 80.1135414, 12.963094 ] } },
{ "type": "Feature", "properties": { "element": "node", "id": 14045532123, "name": "Mappedu", "place": "suburb", "population": null, "settlement_id": "sett_130", "mean_risk": 0.56849998, "built_exposure": 0.76050001, "risk_exposure_score": 0.4323, "risk_tier": "High", "rank": 27 }, "geometry": { "type": "Point", "coordinates": [ 80.1375327, 12.8885456 ] } },
{ "type": "Feature", "properties": { "element": "node", "id": 331881314, "name": "Kadaperi", "place": "locality", "population": null, "settlement_id": "sett_52", "mean_risk": 0.5043, "built_exposure": 0.85439998, "risk_exposure_score": 0.43090001, "risk_tier": "Moderate", "rank": 28 }, "geometry": { "type": "Point", "coordinates": [ 80.1215037, 12.9343103 ] } },
{ "type": "Feature", "properties": { "element": "node", "id": 11013328844, "name": "Keezhakottaiyur", "place": "suburb", "population": null, "settlement_id": "sett_115", "mean_risk": 0.54939997, "built_exposure": 0.73979998, "risk_exposure_score": 0.40650001, "risk_tier": "High", "rank": 29 }, "geometry": { "type": "Point", "coordinates": [ 80.150937, 12.8424787 ] } },
{ "type": "Feature", "properties": { "element": "node", "id": 256197926, "name": "East Tambaram", "place": "suburb", "population": null, "settlement_id": "sett_1", "mean_risk": 0.53479999, "built_exposure": 0.72899997, "risk_exposure_score": 0.3899, "risk_tier": "Moderate", "rank": 30 }, "geometry": { "type": "Point", "coordinates": [ 80.1314526, 12.9265148 ] } },
{ "type": "Feature", "properties": { "element": "node", "id": 280510797, "name": "Balaji Nagar", "place": "neighbourhood", "population": null, "settlement_id": "sett_18", "mean_risk": 0.53179997, "built_exposure": 0.7256, "risk_exposure_score": 0.38589999, "risk_tier": "Moderate", "rank": 31 }, "geometry": { "type": "Point", "coordinates": [ 80.1905716, 12.9721642 ] } },
{ "type": "Feature", "properties": { "element": "node", "id": 1636177745, "name": "Madura Kali Nagar", "place": "neighbourhood", "population": null, "settlement_id": "sett_100", "mean_risk": 0.61409998, "built_exposure": 0.62669998, "risk_exposure_score": 0.3849, "risk_tier": "Very High", "rank": 32 }, "geometry": { "type": "Point", "coordinates": [ 80.1938321, 12.9580319 ] } },
{ "type": "Feature", "properties": { "element": "node", "id": 308915449, "name": "Union Carbide Colony", "place": "neighbourhood", "population": null, "settlement_id": "sett_43", "mean_risk": 0.56720001, "built_exposure": 0.67229998, "risk_exposure_score": 0.3813, "risk_tier": "High", "rank": 33 }, "geometry": { "type": "Point", "coordinates": [ 80.1931481, 12.9739802 ] } },
{ "type": "Feature", "properties": { "element": "node", "id": 306117469, "name": "Peerkankaranai", "place": "neighbourhood", "population": null, "settlement_id": "sett_36", "mean_risk": 0.4804, "built_exposure": 0.77890003, "risk_exposure_score": 0.37419999, "risk_tier": "Moderate", "rank": 34 }, "geometry": { "type": "Point", "coordinates": [ 80.1009824, 12.9080858 ] } },
{ "type": "Feature", "properties": { "element": "node", "id": 9787595230, "name": "Arul Nagar", "place": "neighbourhood", "population": null, "settlement_id": "sett_112", "mean_risk": 0.40079999, "built_exposure": 0.90630001, "risk_exposure_score": 0.36320001, "risk_tier": "Low", "rank": 35 }, "geometry": { "type": "Point", "coordinates": [ 80.1112622, 12.9074664 ] } },
{ "type": "Feature", "properties": { "element": "node", "id": 301134399, "name": "Thirumudivakkam", "place": "suburb", "population": null, "settlement_id": "sett_24", "mean_risk": 0.54089999, "built_exposure": 0.64420003, "risk_exposure_score": 0.3484, "risk_tier": "High", "rank": 36 }, "geometry": { "type": "Point", "coordinates": [ 80.0815441, 12.9648673 ] } },
{ "type": "Feature", "properties": { "element": "node", "id": 313281569, "name": "Nedungundram", "place": "suburb", "population": null, "settlement_id": "sett_48", "mean_risk": 0.46079999, "built_exposure": 0.74379998, "risk_exposure_score": 0.34279999, "risk_tier": "Low", "rank": 37 }, "geometry": { "type": "Point", "coordinates": [ 80.1089039, 12.8796084 ] } },
{ "type": "Feature", "properties": { "element": "node", "id": 301134468, "name": "Erumaiyur", "place": "suburb", "population": null, "settlement_id": "sett_26", "mean_risk": 0.50480002, "built_exposure": 0.64560002, "risk_exposure_score": 0.32589999, "risk_tier": "Moderate", "rank": 38 }, "geometry": { "type": "Point", "coordinates": [ 80.0815988, 12.9547388 ] } },
{ "type": "Feature", "properties": { "element": "node", "id": 280510383, "name": "கண்ணன் நகர்", "place": "neighbourhood", "population": null, "settlement_id": "sett_17", "mean_risk": 0.51090002, "built_exposure": 0.63630003, "risk_exposure_score": 0.3251, "risk_tier": "Moderate", "rank": 39 }, "geometry": { "type": "Point", "coordinates": [ 80.1893164, 12.9699068 ] } },
{ "type": "Feature", "properties": { "element": "node", "id": 332381569, "name": "Alapakkam", "place": "locality", "population": null, "settlement_id": "sett_58", "mean_risk": 0.4226, "built_exposure": 0.7482, "risk_exposure_score": 0.31619999, "risk_tier": "Low", "rank": 40 }, "geometry": { "type": "Point", "coordinates": [ 80.1113742, 12.8847195 ] } },
{ "type": "Feature", "properties": { "element": "node", "id": 308914614, "name": "Voltas Colony", "place": "neighbourhood", "population": null, "settlement_id": "sett_42", "mean_risk": 0.53420001, "built_exposure": 0.5873, "risk_exposure_score": 0.31380001, "risk_tier": "Moderate", "rank": 41 }, "geometry": { "type": "Point", "coordinates": [ 80.1863675, 12.9744987 ] } },
{ "type": "Feature", "properties": { "element": "node", "id": 14045532122, "name": "Thiruvanchery", "place": "suburb", "population": null, "settlement_id": "sett_129", "mean_risk": 0.50040001, "built_exposure": 0.62339997, "risk_exposure_score": 0.31189999, "risk_tier": "Moderate", "rank": 42 }, "geometry": { "type": "Point", "coordinates": [ 80.1402996, 12.8957047 ] } },
{ "type": "Feature", "properties": { "element": "node", "id": 12534285821, "name": "Kamatchi Nagar", "place": "neighbourhood", "population": null, "settlement_id": "sett_121", "mean_risk": 0.6024, "built_exposure": 0.50840002, "risk_exposure_score": 0.3062, "risk_tier": "Very High", "rank": 43 }, "geometry": { "type": "Point", "coordinates": [ 80.2158648, 12.9445831 ] } },
{ "type": "Feature", "properties": { "element": "node", "id": 6129385262, "name": "TVS Green Hills", "place": "locality", "population": null, "settlement_id": "sett_110", "mean_risk": 0.361, "built_exposure": 0.81330001, "risk_exposure_score": 0.29359999, "risk_tier": "Low", "rank": 44 }, "geometry": { "type": "Point", "coordinates": [ 80.1124616, 12.8907001 ] } },
{ "type": "Feature", "properties": { "element": "node", "id": 14224684428, "name": "Barathi Nagar", "place": "neighbourhood", "population": null, "settlement_id": "sett_137", "mean_risk": 0.51410002, "built_exposure": 0.50959998, "risk_exposure_score": 0.262, "risk_tier": "Moderate", "rank": 45 }, "geometry": { "type": "Point", "coordinates": [ 80.1427093, 12.9185636 ] } },
{ "type": "Feature", "properties": { "element": "node", "id": 256197930, "name": "Selaiyur", "place": "suburb", "population": null, "settlement_id": "sett_4", "mean_risk": 0.45989999, "built_exposure": 0.5643, "risk_exposure_score": 0.2595, "risk_tier": "Low", "rank": 46 }, "geometry": { "type": "Point", "coordinates": [ 80.1379536, 12.9178113 ] } },
{ "type": "Feature", "properties": { "element": "node", "id": 301734430, "name": "Moovarasampettai", "place": "suburb", "population": null, "settlement_id": "sett_31", "mean_risk": 0.56239998, "built_exposure": 0.45089999, "risk_exposure_score": 0.2536, "risk_tier": "High", "rank": 47 }, "geometry": { "type": "Point", "coordinates": [ 80.1833591, 12.9693665 ] } },
{ "type": "Feature", "properties": { "element": "node", "id": 12534286145, "name": "Kamakoti Nagar", "place": "neighbourhood", "population": null, "settlement_id": "sett_122", "mean_risk": 0.58429998, "built_exposure": 0.38800001, "risk_exposure_score": 0.22669999, "risk_tier": "High", "rank": 48 }, "geometry": { "type": "Point", "coordinates": [ 80.2132684, 12.9410358 ] } },
{ "type": "Feature", "properties": { "element": "node", "id": 11013328843, "name": "Mambakkam", "place": "suburb", "population": null, "settlement_id": "sett_114", "mean_risk": 0.52810001, "built_exposure": 0.4136, "risk_exposure_score": 0.2184, "risk_tier": "Moderate", "rank": 49 }, "geometry": { "type": "Point", "coordinates": [ 80.1689782, 12.8360136 ] } },
{ "type": "Feature", "properties": { "element": "node", "id": 1180849771, "name": "Kattangulathur", "place": "village", "population": null, "settlement_id": "sett_93", "mean_risk": 0.30239999, "built_exposure": 0.72130001, "risk_exposure_score": 0.2181, "risk_tier": "Low", "rank": 50 }, "geometry": { "type": "Point", "coordinates": [ 80.030186, 12.8081092 ] } },
{ "type": "Feature", "properties": { "element": "way", "id": 297314918, "name": "Rajeswari Nagar", "place": "neighbourhood", "population": null, "settlement_id": "sett_138", "mean_risk": 0.53079998, "built_exposure": 0.4059, "risk_exposure_score": 0.2154, "risk_tier": "Moderate", "rank": 51 }, "geometry": { "type": "Point", "coordinates": [ 80.140691630396461, 12.923595544717188 ] } },
{ "type": "Feature", "properties": { "element": "node", "id": 14224684425, "name": "IOB Colony", "place": "neighbourhood", "population": null, "settlement_id": "sett_134", "mean_risk": 0.4878, "built_exposure": 0.4402, "risk_exposure_score": 0.2147, "risk_tier": "Moderate", "rank": 52 }, "geometry": { "type": "Point", "coordinates": [ 80.1411846, 12.920805 ] } },
{ "type": "Feature", "properties": { "element": "node", "id": 11014847700, "name": "Kumizhi", "place": "village", "population": null, "settlement_id": "sett_118", "mean_risk": 0.52710003, "built_exposure": 0.4066, "risk_exposure_score": 0.21430001, "risk_tier": "Moderate", "rank": 53 }, "geometry": { "type": "Point", "coordinates": [ 80.1228794, 12.8002759 ] } },
{ "type": "Feature", "properties": { "element": "node", "id": 301139010, "name": "Kamarajapuram", "place": "locality", "population": null, "settlement_id": "sett_29", "mean_risk": 0.43009999, "built_exposure": 0.49630001, "risk_exposure_score": 0.21340001, "risk_tier": "Low", "rank": 54 }, "geometry": { "type": "Point", "coordinates": [ 80.1215013, 12.9724421 ] } },
{ "type": "Feature", "properties": { "element": "node", "id": 14224684427, "name": "Yeshwanth Nagar", "place": "neighbourhood", "population": null, "settlement_id": "sett_136", "mean_risk": 0.47960001, "built_exposure": 0.44369999, "risk_exposure_score": 0.2128, "risk_tier": "Moderate", "rank": 55 }, "geometry": { "type": "Point", "coordinates": [ 80.1492453, 12.9026688 ] } },
{ "type": "Feature", "properties": { "element": "node", "id": 310360632, "name": "Keelkattalai", "place": "suburb", "population": null, "settlement_id": "sett_44", "mean_risk": 0.5442, "built_exposure": 0.3836, "risk_exposure_score": 0.2087, "risk_tier": "High", "rank": 56 }, "geometry": { "type": "Point", "coordinates": [ 80.1852685, 12.9548473 ] } },
{ "type": "Feature", "properties": { "element": "node", "id": 14041638036, "name": "Echangadu", "place": "suburb", "population": null, "settlement_id": "sett_128", "mean_risk": 0.52679998, "built_exposure": 0.3858, "risk_exposure_score": 0.2033, "risk_tier": "Moderate", "rank": 57 }, "geometry": { "type": "Point", "coordinates": [ 80.1839213, 12.9480726 ] } },
{ "type": "Feature", "properties": { "element": "node", "id": 306117685, "name": "Kolapakkam", "place": "suburb", "population": null, "settlement_id": "sett_37", "mean_risk": 0.40419999, "built_exposure": 0.4896, "risk_exposure_score": 0.1979, "risk_tier": "Low", "rank": 58 }, "geometry": { "type": "Point", "coordinates": [ 80.1049737, 12.8719136 ] } },
{ "type": "Feature", "properties": { "element": "node", "id": 313282318, "name": "Unamancherri", "place": "locality", "population": null, "settlement_id": "sett_49", "mean_risk": 0.4039, "built_exposure": 0.489, "risk_exposure_score": 0.19750001, "risk_tier": "Low", "rank": 59 }, "geometry": { "type": "Point", "coordinates": [ 80.1073083, 12.8602324 ] } },
{ "type": "Feature", "properties": { "element": "node", "id": 256197931, "name": "Chitlapakkam", "place": "suburb", "population": null, "settlement_id": "sett_5", "mean_risk": 0.4955, "built_exposure": 0.3937, "risk_exposure_score": 0.19509999, "risk_tier": "Moderate", "rank": 60 }, "geometry": { "type": "Point", "coordinates": [ 80.1413832, 12.9330984 ] } },
{ "type": "Feature", "properties": { "element": "node", "id": 301136096, "name": "Bakhtavachalam Nagar", "place": "neighbourhood", "population": null, "settlement_id": "sett_28", "mean_risk": 0.49020001, "built_exposure": 0.37259999, "risk_exposure_score": 0.18269999, "risk_tier": "Moderate", "rank": 61 }, "geometry": { "type": "Point", "coordinates": [ 80.179105, 12.9778604 ] } },
{ "type": "Feature", "properties": { "element": "node", "id": 335749107, "name": "Balaji Nagar", "place": "neighbourhood", "population": null, "settlement_id": "sett_66", "mean_risk": 0.45249999, "built_exposure": 0.39750001, "risk_exposure_score": 0.17990001, "risk_tier": "Low", "rank": 62 }, "geometry": { "type": "Point", "coordinates": [ 80.14521, 12.9087545 ] } },
{ "type": "Feature", "properties": { "element": "node", "id": 14224684426, "name": "Padmavathy Nagar", "place": "neighbourhood", "population": null, "settlement_id": "sett_135", "mean_risk": 0.51169997, "built_exposure": 0.33239999, "risk_exposure_score": 0.1701, "risk_tier": "Moderate", "rank": 63 }, "geometry": { "type": "Point", "coordinates": [ 80.1544781, 12.9093303 ] } },
{ "type": "Feature", "properties": { "element": "node", "id": 1370961492, "name": "Nandhivaram", "place": "locality", "population": null, "settlement_id": "sett_99", "mean_risk": 0.4073, "built_exposure": 0.4023, "risk_exposure_score": 0.1638, "risk_tier": "Low", "rank": 64 }, "geometry": { "type": "Point", "coordinates": [ 80.0653482, 12.840725 ] } },
{ "type": "Feature", "properties": { "element": "node", "id": 301134429, "name": "Palanthandalam", "place": "suburb", "population": null, "settlement_id": "sett_25", "mean_risk": 0.51950002, "built_exposure": 0.31, "risk_exposure_score": 0.161, "risk_tier": "Moderate", "rank": 65 }, "geometry": { "type": "Point", "coordinates": [ 80.0703903, 12.9599299 ] } },
{ "type": "Feature", "properties": { "element": "node", "id": 256202916, "name": "Madambakkam", "place": "suburb", "population": null, "settlement_id": "sett_11", "mean_risk": 0.5395, "built_exposure": 0.29460001, "risk_exposure_score": 0.15889999, "risk_tier": "High", "rank": 66 }, "geometry": { "type": "Point", "coordinates": [ 80.1586793, 12.9063303 ] } },
{ "type": "Feature", "properties": { "element": "node", "id": 13277610183, "name": "New Colony", "place": "neighbourhood", "population": null, "settlement_id": "sett_123", "mean_risk": 0.37369999, "built_exposure": 0.42480001, "risk_exposure_score": 0.1587, "risk_tier": "Low", "rank": 67 }, "geometry": { "type": "Point", "coordinates": [ 80.1364482, 12.9512943 ] } },
{ "type": "Feature", "properties": { "element": "node", "id": 331913707, "name": "Dharkas", "place": "village", "population": null, "settlement_id": "sett_54", "mean_risk": 0.49529999, "built_exposure": 0.30320001, "risk_exposure_score": 0.15009999, "risk_tier": "Moderate", "rank": 68 }, "geometry": { "type": "Point", "coordinates": [ 80.0715416, 12.9410443 ] } },
{ "type": "Feature", "properties": { "element": "node", "id": 2481011869, "name": "Rajaji Nagar", "place": "locality", "population": null, "settlement_id": "sett_107", "mean_risk": 0.46439999, "built_exposure": 0.32089999, "risk_exposure_score": 0.149, "risk_tier": "Low", "rank": 69 }, "geometry": { "type": "Point", "coordinates": [ 80.077893, 12.8140547 ] } },
{ "type": "Feature", "properties": { "element": "node", "id": 826126983, "name": "Karayambedu", "place": "village", "population": null, "settlement_id": "sett_88", "mean_risk": 0.4425, "built_exposure": 0.32440001, "risk_exposure_score": 0.1435, "risk_tier": "Low", "rank": 70 }, "geometry": { "type": "Point", "coordinates": [ 80.0736034, 12.8077914 ] } },
{ "type": "Feature", "properties": { "element": "node", "id": 294073714, "name": "Periya Colony", "place": "neighbourhood", "population": null, "settlement_id": "sett_22", "mean_risk": 0.4481, "built_exposure": 0.31690001, "risk_exposure_score": 0.142, "risk_tier": "Low", "rank": 71 }, "geometry": { "type": "Point", "coordinates": [ 80.0614965, 12.9734626 ] } },
{ "type": "Feature", "properties": { "element": "node", "id": 256197927, "name": "Chromepet", "place": "suburb", "population": null, "settlement_id": "sett_2", "mean_risk": 0.34670001, "built_exposure": 0.4057, "risk_exposure_score": 0.1406, "risk_tier": "Low", "rank": 72 }, "geometry": { "type": "Point", "coordinates": [ 80.135642, 12.9496841 ] } },
{ "type": "Feature", "properties": { "element": "node", "id": 256203139, "name": "Perungalathur", "place": "suburb", "population": null, "settlement_id": "sett_15", "mean_risk": 0.33039999, "built_exposure": 0.417, "risk_exposure_score": 0.13779999, "risk_tier": "Low", "rank": 73 }, "geometry": { "type": "Point", "coordinates": [ 80.0879549, 12.9145454 ] } },
{ "type": "Feature", "properties": { "element": "node", "id": 256197932, "name": "Hasthinapuram", "place": "neighbourhood", "population": null, "settlement_id": "sett_6", "mean_risk": 0.48320001, "built_exposure": 0.27919999, "risk_exposure_score": 0.1349, "risk_tier": "Moderate", "rank": 74 }, "geometry": { "type": "Point", "coordinates": [ 80.1519854, 12.9372824 ] } },
{ "type": "Feature", "properties": { "element": "node", "id": 335750561, "name": "Srinivasa Nagar", "place": "locality", "population": null, "settlement_id": "sett_67", "mean_risk": 0.47220001, "built_exposure": 0.28, "risk_exposure_score": 0.1322, "risk_tier": "Low", "rank": 75 }, "geometry": { "type": "Point", "coordinates": [ 80.1575187, 12.9127712 ] } },
{ "type": "Feature", "properties": { "element": "node", "id": 331914721, "name": "Ettayapuram", "place": "village", "population": null, "settlement_id": "sett_55", "mean_risk": 0.48410001, "built_exposure": 0.27090001, "risk_exposure_score": 0.1311, "risk_tier": "Moderate", "rank": 76 }, "geometry": { "type": "Point", "coordinates": [ 80.0631045, 12.9472093 ] } },
{ "type": "Feature", "properties": { "element": "node", "id": 335748452, "name": "Kovilanchery", "place": "suburb", "population": null, "settlement_id": "sett_64", "mean_risk": 0.51249999, "built_exposure": 0.25440001, "risk_exposure_score": 0.1304, "risk_tier": "Moderate", "rank": 77 }, "geometry": { "type": "Point", "coordinates": [ 80.1688055, 12.8813093 ] } },
{ "type": "Feature", "properties": { "element": "node", "id": 335748740, "name": "Ponmar", "place": "suburb", "population": null, "settlement_id": "sett_65", "mean_risk": 0.498, "built_exposure": 0.2606, "risk_exposure_score": 0.12980001, "risk_tier": "Moderate", "rank": 78 }, "geometry": { "type": "Point", "coordinates": [ 80.1714689, 12.8572791 ] } },
{ "type": "Feature", "properties": { "element": "node", "id": 1180849778, "name": "Guduvancheri", "place": "village", "population": null, "settlement_id": "sett_95", "mean_risk": 0.40709999, "built_exposure": 0.31220001, "risk_exposure_score": 0.12710001, "risk_tier": "Low", "rank": 79 }, "geometry": { "type": "Point", "coordinates": [ 80.0608336, 12.8439952 ] } },
{ "type": "Feature", "properties": { "element": "node", "id": 14041638035, "name": "Kovilambakkam", "place": "suburb", "population": null, "settlement_id": "sett_127", "mean_risk": 0.46129999, "built_exposure": 0.2651, "risk_exposure_score": 0.1223, "risk_tier": "Low", "rank": 80 }, "geometry": { "type": "Point", "coordinates": [ 80.179988, 12.9406821 ] } },
{ "type": "Feature", "properties": { "element": "node", "id": 1693541848, "name": "Heritage Jayendra Nagar", "place": "neighbourhood", "population": null, "settlement_id": "sett_102", "mean_risk": 0.51480001, "built_exposure": 0.2289, "risk_exposure_score": 0.1178, "risk_tier": "Moderate", "rank": 81 }, "geometry": { "type": "Point", "coordinates": [ 80.1647479, 12.9345186 ] } },
{ "type": "Feature", "properties": { "element": "node", "id": 14059858524, "name": "Sembakkam", "place": "suburb", "population": null, "settlement_id": "sett_131", "mean_risk": 0.493, "built_exposure": 0.2362, "risk_exposure_score": 0.1164, "risk_tier": "Moderate", "rank": 82 }, "geometry": { "type": "Point", "coordinates": [ 80.1596447, 12.927376 ] } },
{ "type": "Feature", "properties": { "element": "node", "id": 14221313466, "name": "Vellakkal", "place": "neighbourhood", "population": null, "settlement_id": "sett_133", "mean_risk": 0.48800001, "built_exposure": 0.2379, "risk_exposure_score": 0.1161, "risk_tier": "Moderate", "rank": 83 }, "geometry": { "type": "Point", "coordinates": [ 80.1784371, 12.9332524 ] } },
{ "type": "Feature", "properties": { "element": "node", "id": 301133602, "name": "Muthamizh Nagar", "place": "locality", "population": null, "settlement_id": "sett_23", "mean_risk": 0.45969999, "built_exposure": 0.2511, "risk_exposure_score": 0.1154, "risk_tier": "Low", "rank": 84 }, "geometry": { "type": "Point", "coordinates": [ 80.1437333, 12.9700812 ] } },
{ "type": "Feature", "properties": { "element": "node", "id": 256197946, "name": "Rajakilpakkam", "place": "suburb", "population": null, "settlement_id": "sett_7", "mean_risk": 0.4375, "built_exposure": 0.2471, "risk_exposure_score": 0.1081, "risk_tier": "Low", "rank": 85 }, "geometry": { "type": "Point", "coordinates": [ 80.1544267, 12.9178445 ] } },
{ "type": "Feature", "properties": { "element": "node", "id": 14059916525, "name": "Radha Nagar", "place": "neighbourhood", "population": null, "settlement_id": "sett_132", "mean_risk": 0.37029999, "built_exposure": 0.27720001, "risk_exposure_score": 0.1026, "risk_tier": "Low", "rank": 86 }, "geometry": { "type": "Point", "coordinates": [ 80.1468107, 12.9507804 ] } },
{ "type": "Feature", "properties": { "element": "node", "id": 335750854, "name": "Noothanchery", "place": "suburb", "population": null, "settlement_id": "sett_68", "mean_risk": 0.4709, "built_exposure": 0.2176, "risk_exposure_score": 0.1025, "risk_tier": "Low", "rank": 87 }, "geometry": { "type": "Point", "coordinates": [ 80.1704841, 12.8967172 ] } },
{ "type": "Feature", "properties": { "element": "node", "id": 14038759248, "name": "Neelamangalam", "place": "suburb", "population": null, "settlement_id": "sett_125", "mean_risk": 0.405, "built_exposure": 0.25130001, "risk_exposure_score": 0.1018, "risk_tier": "Low", "rank": 88 }, "geometry": { "type": "Point", "coordinates": [ 80.0415025, 12.8558158 ] } },
{ "type": "Feature", "properties": { "element": "node", "id": 335757346, "name": "Pudupakkam", "place": "suburb", "population": null, "settlement_id": "sett_73", "mean_risk": 0.49860001, "built_exposure": 0.20119999, "risk_exposure_score": 0.1003, "risk_tier": "Moderate", "rank": 89 }, "geometry": { "type": "Point", "coordinates": [ 80.2023055, 12.8097819 ] } },
{ "type": "Feature", "properties": { "element": "node", "id": 340082429, "name": "Venkataraman Nagar", "place": "neighbourhood", "population": null, "settlement_id": "sett_75", "mean_risk": 0.48789999, "built_exposure": 0.2015, "risk_exposure_score": 0.098300003, "risk_tier": "Moderate", "rank": 90 }, "geometry": { "type": "Point", "coordinates": [ 80.1468846, 12.9382136 ] } },
{ "type": "Feature", "properties": { "element": "node", "id": 4089493731, "name": "Nanmangalam", "place": "neighbourhood", "population": null, "settlement_id": "sett_109", "mean_risk": 0.46579999, "built_exposure": 0.20739999, "risk_exposure_score": 0.096600004, "risk_tier": "Low", "rank": 91 }, "geometry": { "type": "Point", "coordinates": [ 80.1774249, 12.9374309 ] } },
{ "type": "Feature", "properties": { "element": "node", "id": 335755198, "name": "Siruseri", "place": "suburb", "population": null, "settlement_id": "sett_71", "mean_risk": 0.52899998, "built_exposure": 0.1824, "risk_exposure_score": 0.096500002, "risk_tier": "Moderate", "rank": 92 }, "geometry": { "type": "Point", "coordinates": [ 80.209441, 12.831486 ] } },
{ "type": "Feature", "properties": { "element": "node", "id": 301135484, "name": "Tirusulam", "place": "suburb", "population": null, "settlement_id": "sett_27", "mean_risk": 0.41620001, "built_exposure": 0.2234, "risk_exposure_score": 0.093, "risk_tier": "Low", "rank": 93 }, "geometry": { "type": "Point", "coordinates": [ 80.1670775, 12.9738279 ] } },
{ "type": "Feature", "properties": { "element": "node", "id": 2210037955, "name": "Skylab Avenue", "place": "neighbourhood", "population": null, "settlement_id": "sett_105", "mean_risk": 0.45550001, "built_exposure": 0.1929, "risk_exposure_score": 0.087899998, "risk_tier": "Low", "rank": 94 }, "geometry": { "type": "Point", "coordinates": [ 80.1841392, 12.8921028 ] } },
{ "type": "Feature", "properties": { "element": "node", "id": 14031488244, "name": "Kilambakkam", "place": "suburb", "population": null, "settlement_id": "sett_124", "mean_risk": 0.37889999, "built_exposure": 0.2186, "risk_exposure_score": 0.082800001, "risk_tier": "Low", "rank": 95 }, "geometry": { "type": "Point", "coordinates": [ 80.0773586, 12.8737712 ] } },
{ "type": "Feature", "properties": { "element": "node", "id": 11148027551, "name": "Serene Avenue", "place": "neighbourhood", "population": null, "settlement_id": "sett_120", "mean_risk": 0.46470001, "built_exposure": 0.17739999, "risk_exposure_score": 0.082400002, "risk_tier": "Low", "rank": 96 }, "geometry": { "type": "Point", "coordinates": [ 80.1710972, 12.8607589 ] } },
{ "type": "Feature", "properties": { "element": "node", "id": 340359305, "name": "Samathuvapuram", "place": "locality", "population": null, "settlement_id": "sett_81", "mean_risk": 0.42160001, "built_exposure": 0.1952, "risk_exposure_score": 0.0823, "risk_tier": "Low", "rank": 97 }, "geometry": { "type": "Point", "coordinates": [ 80.0418726, 12.8902864 ] } },
{ "type": "Feature", "properties": { "element": "node", "id": 340358334, "name": "Mannivakkam", "place": "suburb", "population": null, "settlement_id": "sett_78", "mean_risk": 0.38589999, "built_exposure": 0.21089999, "risk_exposure_score": 0.0814, "risk_tier": "Low", "rank": 98 }, "geometry": { "type": "Point", "coordinates": [ 80.0652271, 12.8943694 ] } },
{ "type": "Feature", "properties": { "element": "node", "id": 9902413099, "name": "Old Pallavaram", "place": "suburb", "population": null, "settlement_id": "sett_113", "mean_risk": 0.34119999, "built_exposure": 0.2279, "risk_exposure_score": 0.077699997, "risk_tier": "Low", "rank": 99 }, "geometry": { "type": "Point", "coordinates": [ 80.1665389, 12.9633042 ] } },
{ "type": "Feature", "properties": { "element": "node", "id": 331163303, "name": "Poonthandalam", "place": "village", "population": null, "settlement_id": "sett_51", "mean_risk": 0.44800001, "built_exposure": 0.1734, "risk_exposure_score": 0.077699997, "risk_tier": "Low", "rank": 100 }, "geometry": { "type": "Point", "coordinates": [ 80.0497578, 12.9642395 ] } },
{ "type": "Feature", "properties": { "element": "node", "id": 306118071, "name": "Varadarajapuram", "place": "suburb", "population": null, "settlement_id": "sett_40", "mean_risk": 0.36750001, "built_exposure": 0.20919999, "risk_exposure_score": 0.076899998, "risk_tier": "Low", "rank": 101 }, "geometry": { "type": "Point", "coordinates": [ 80.067655, 12.9059866 ] } },
{ "type": "Feature", "properties": { "element": "node", "id": 402979599, "name": "Nookampalayam", "place": "suburb", "population": null, "settlement_id": "sett_87", "mean_risk": 0.4632, "built_exposure": 0.1648, "risk_exposure_score": 0.076300003, "risk_tier": "Low", "rank": 102 }, "geometry": { "type": "Point", "coordinates": [ 80.2018925, 12.8842524 ] } },
{ "type": "Feature", "properties": { "element": "node", "id": 256197952, "name": "Perumbakkam", "place": "suburb", "population": null, "settlement_id": "sett_9", "mean_risk": 0.55010003, "built_exposure": 0.13609999, "risk_exposure_score": 0.074900001, "risk_tier": "High", "rank": 103 }, "geometry": { "type": "Point", "coordinates": [ 80.1956163, 12.9055459 ] } },
{ "type": "Feature", "properties": { "element": "node", "id": 306117874, "name": "Vandalur", "place": "suburb", "population": null, "settlement_id": "sett_38", "mean_risk": 0.39570001, "built_exposure": 0.18089999, "risk_exposure_score": 0.071599998, "risk_tier": "Low", "rank": 104 }, "geometry": { "type": "Point", "coordinates": [ 80.0829603, 12.8921486 ] } },
{ "type": "Feature", "properties": { "element": "node", "id": 310363802, "name": "Santoshapuram", "place": "suburb", "population": null, "settlement_id": "sett_45", "mean_risk": 0.3906, "built_exposure": 0.17560001, "risk_exposure_score": 0.0686, "risk_tier": "Low", "rank": 105 }, "geometry": { "type": "Point", "coordinates": [ 80.1739903, 12.9159656 ] } },
{ "type": "Feature", "properties": { "element": "node", "id": 310378460, "name": "Gowriwakkam", "place": "suburb", "population": null, "settlement_id": "sett_46", "mean_risk": 0.47760001, "built_exposure": 0.1428, "risk_exposure_score": 0.0682, "risk_tier": "Moderate", "rank": 106 }, "geometry": { "type": "Point", "coordinates": [ 80.161974, 12.9207592 ] } },
{ "type": "Feature", "properties": { "element": "node", "id": 11014895006, "name": "Kannivakkam", "place": "village", "population": null, "settlement_id": "sett_119", "mean_risk": 0.43419999, "built_exposure": 0.1533, "risk_exposure_score": 0.066500001, "risk_tier": "Low", "rank": 107 }, "geometry": { "type": "Point", "coordinates": [ 80.0911928, 12.8111739 ] } },
{ "type": "Feature", "properties": { "element": "node", "id": 256202986, "name": "Pammal", "place": "suburb", "population": null, "settlement_id": "sett_13", "mean_risk": 0.34990001, "built_exposure": 0.1893, "risk_exposure_score": 0.066200003, "risk_tier": "Low", "rank": 108 }, "geometry": { "type": "Point", "coordinates": [ 80.1363647, 12.9762312 ] } },
{ "type": "Feature", "properties": { "element": "node", "id": 340356305, "name": "Manimangalam", "place": "village", "population": null, "settlement_id": "sett_76", "mean_risk": 0.398, "built_exposure": 0.1609, "risk_exposure_score": 0.064, "risk_tier": "Low", "rank": 109 }, "geometry": { "type": "Point", "coordinates": [ 80.0412449, 12.916831 ] } },
{ "type": "Feature", "properties": { "element": "node", "id": 340359308, "name": "MGR Nagar", "place": "locality", "population": null, "settlement_id": "sett_82", "mean_risk": 0.38350001, "built_exposure": 0.1576, "risk_exposure_score": 0.0605, "risk_tier": "Low", "rank": 110 }, "geometry": { "type": "Point", "coordinates": [ 80.0421043, 12.8942774 ] } },
{ "type": "Feature", "properties": { "element": "node", "id": 306116789, "name": "Vengaivasal Panchayat office", "place": "locality", "population": null, "settlement_id": "sett_35", "mean_risk": 0.43329999, "built_exposure": 0.1365, "risk_exposure_score": 0.059099998, "risk_tier": "Low", "rank": 111 }, "geometry": { "type": "Point", "coordinates": [ 80.1715639, 12.9000243 ] } },
{ "type": "Feature", "properties": { "element": "node", "id": 964604614, "name": "Nemilichery", "place": "neighbourhood", "population": null, "settlement_id": "sett_90", "mean_risk": 0.3976, "built_exposure": 0.1459, "risk_exposure_score": 0.058, "risk_tier": "Low", "rank": 112 }, "geometry": { "type": "Point", "coordinates": [ 80.1637154, 12.9460425 ] } },
{ "type": "Feature", "properties": { "element": "node", "id": 331918549, "name": "Somangalam", "place": "village", "population": null, "settlement_id": "sett_56", "mean_risk": 0.39269999, "built_exposure": 0.146, "risk_exposure_score": 0.057300001, "risk_tier": "Low", "rank": 113 }, "geometry": { "type": "Point", "coordinates": [ 80.0341452, 12.9482883 ] } },
{ "type": "Feature", "properties": { "element": "node", "id": 335753159, "name": "Ottiambakkam", "place": "suburb", "population": null, "settlement_id": "sett_69", "mean_risk": 0.434, "built_exposure": 0.1302, "risk_exposure_score": 0.0565, "risk_tier": "Low", "rank": 114 }, "geometry": { "type": "Point", "coordinates": [ 80.191851, 12.8610723 ] } },
{ "type": "Feature", "properties": { "element": "node", "id": 331163199, "name": "Puducheri", "place": "village", "population": null, "settlement_id": "sett_50", "mean_risk": 0.49529999, "built_exposure": 0.1133, "risk_exposure_score": 0.0561, "risk_tier": "Moderate", "rank": 115 }, "geometry": { "type": "Point", "coordinates": [ 80.0428141, 12.9519019 ] } },
{ "type": "Feature", "properties": { "element": "node", "id": 11013412995, "name": "Aurum Villas by Pacifica", "place": "neighbourhood", "population": null, "settlement_id": "sett_117", "mean_risk": 0.45100001, "built_exposure": 0.1192, "risk_exposure_score": 0.053800002, "risk_tier": "Low", "rank": 116 }, "geometry": { "type": "Point", "coordinates": [ 80.2141088, 12.8068992 ] } },
{ "type": "Feature", "properties": { "element": "node", "id": 256197928, "name": "Pallavaram", "place": "town", "population": "214500", "settlement_id": "sett_3", "mean_risk": 0.3761, "built_exposure": 0.13410001, "risk_exposure_score": 0.0504, "risk_tier": "Low", "rank": 117 }, "geometry": { "type": "Point", "coordinates": [ 80.1451178, 12.9654669 ] } },
{ "type": "Feature", "properties": { "element": "node", "id": 256197949, "name": "Medavakkam", "place": "suburb", "population": null, "settlement_id": "sett_8", "mean_risk": 0.54100001, "built_exposure": 0.089100003, "risk_exposure_score": 0.0482, "risk_tier": "High", "rank": 118 }, "geometry": { "type": "Point", "coordinates": [ 80.1872156, 12.9202141 ] } },
{ "type": "Feature", "properties": { "element": "node", "id": 3263004961, "name": "Vardhaman Nagar", "place": "neighbourhood", "population": null, "settlement_id": "sett_108", "mean_risk": 0.33759999, "built_exposure": 0.1344, "risk_exposure_score": 0.045400001, "risk_tier": "Low", "rank": 119 }, "geometry": { "type": "Point", "coordinates": [ 80.062308, 12.867816 ] } },
{ "type": "Feature", "properties": { "element": "node", "id": 340357907, "name": "Karasangal", "place": "suburb", "population": null, "settlement_id": "sett_77", "mean_risk": 0.40290001, "built_exposure": 0.1109, "risk_exposure_score": 0.0447, "risk_tier": "Low", "rank": 120 }, "geometry": { "type": "Point", "coordinates": [ 80.0440183, 12.896871 ] } },
{ "type": "Feature", "properties": { "element": "node", "id": 256197956, "name": "Sithalapakkam", "place": "suburb", "population": null, "settlement_id": "sett_10", "mean_risk": 0.4269, "built_exposure": 0.1047, "risk_exposure_score": 0.0447, "risk_tier": "Low", "rank": 121 }, "geometry": { "type": "Point", "coordinates": [ 80.1840304, 12.8914228 ] } },
{ "type": "Feature", "properties": { "element": "node", "id": 1693509502, "name": "VGP Santhanammal Nagar", "place": "locality", "population": null, "settlement_id": "sett_101", "mean_risk": 0.4271, "built_exposure": 0.1024, "risk_exposure_score": 0.043699998, "risk_tier": "Low", "rank": 122 }, "geometry": { "type": "Point", "coordinates": [ 80.1689022, 12.9212802 ] } },
{ "type": "Feature", "properties": { "element": "node", "id": 402294609, "name": "Naduveerapattu", "place": "village", "population": null, "settlement_id": "sett_84", "mean_risk": 0.50050002, "built_exposure": 0.085900001, "risk_exposure_score": 0.043, "risk_tier": "Moderate", "rank": 123 }, "geometry": { "type": "Point", "coordinates": [ 80.055865, 12.9380331 ] } },
{ "type": "Feature", "properties": { "element": "node", "id": 2210077654, "name": "Skylab Avenue", "place": "locality", "population": null, "settlement_id": "sett_106", "mean_risk": 0.4641, "built_exposure": 0.091899998, "risk_exposure_score": 0.042599998, "risk_tier": "Low", "rank": 124 }, "geometry": { "type": "Point", "coordinates": [ 80.1847733, 12.8930443 ] } },
{ "type": "Feature", "properties": { "element": "node", "id": 335758183, "name": "Thazhambur", "place": "suburb", "population": null, "settlement_id": "sett_74", "mean_risk": 0.50139999, "built_exposure": 0.083499998, "risk_exposure_score": 0.041900001, "risk_tier": "Moderate", "rank": 125 }, "geometry": { "type": "Point", "coordinates": [ 80.2088826, 12.8492049 ] } },
{ "type": "Feature", "properties": { "element": "node", "id": 340358380, "name": "Ram Nagar", "place": "locality", "population": null, "settlement_id": "sett_79", "mean_risk": 0.29890001, "built_exposure": 0.13869999, "risk_exposure_score": 0.0414, "risk_tier": "Low", "rank": 126 }, "geometry": { "type": "Point", "coordinates": [ 80.0650983, 12.8919242 ] } },
{ "type": "Feature", "properties": { "element": "node", "id": 335755630, "name": "Veerabadhra Nagar", "place": "neighbourhood", "population": null, "settlement_id": "sett_72", "mean_risk": 0.4946, "built_exposure": 0.080600001, "risk_exposure_score": 0.0398, "risk_tier": "Moderate", "rank": 127 }, "geometry": { "type": "Point", "coordinates": [ 80.1890144, 12.9062546 ] } },
{ "type": "Feature", "properties": { "element": "node", "id": 14038759249, "name": "Adhanur", "place": "suburb", "population": null, "settlement_id": "sett_126", "mean_risk": 0.29570001, "built_exposure": 0.1261, "risk_exposure_score": 0.037300002, "risk_tier": "Low", "rank": 128 }, "geometry": { "type": "Point", "coordinates": [ 80.0506885, 12.8724625 ] } },
{ "type": "Feature", "properties": { "element": "node", "id": 1180849775, "name": "Urapakkam", "place": "suburb", "population": null, "settlement_id": "sett_94", "mean_risk": 0.33419999, "built_exposure": 0.1016, "risk_exposure_score": 0.034, "risk_tier": "Low", "rank": 129 }, "geometry": { "type": "Point", "coordinates": [ 80.0721616, 12.8636676 ] } },
{ "type": "Feature", "properties": { "element": "way", "id": 319828746, "name": "Vardhaman Nagar", "place": "suburb", "population": null, "settlement_id": "sett_139", "mean_risk": 0.33180001, "built_exposure": 0.1005, "risk_exposure_score": 0.033300001, "risk_tier": "Low", "rank": 130 }, "geometry": { "type": "Point", "coordinates": [ 80.062034982869747, 12.867834789416555 ] } },
{ "type": "Feature", "properties": { "element": "node", "id": 306118067, "name": "Mudichur", "place": "suburb", "population": null, "settlement_id": "sett_39", "mean_risk": 0.30289999, "built_exposure": 0.1092, "risk_exposure_score": 0.033100002, "risk_tier": "Low", "rank": 131 }, "geometry": { "type": "Point", "coordinates": [ 80.0688419, 12.9149849 ] } },
{ "type": "Feature", "properties": { "element": "node", "id": 340358501, "name": "Shanmuga Nagar", "place": "locality", "population": null, "settlement_id": "sett_80", "mean_risk": 0.40630001, "built_exposure": 0.0805, "risk_exposure_score": 0.032699998, "risk_tier": "Low", "rank": 132 }, "geometry": { "type": "Point", "coordinates": [ 80.0630899, 12.8968877 ] } },
{ "type": "Feature", "properties": { "element": "node", "id": 335755162, "name": "Karanai", "place": "suburb", "population": null, "settlement_id": "sett_70", "mean_risk": 0.4763, "built_exposure": 0.059099998, "risk_exposure_score": 0.028200001, "risk_tier": "Moderate", "rank": 133 }, "geometry": { "type": "Point", "coordinates": [ 80.2005344, 12.8573272 ] } },
{ "type": "Feature", "properties": { "element": "node", "id": 306115540, "name": "Jalladampet", "place": "suburb", "population": null, "settlement_id": "sett_34", "mean_risk": 0.71789998, "built_exposure": 0.01, "risk_exposure_score": 0.0072, "risk_tier": "Very High", "rank": 134 }, "geometry": { "type": "Point", "coordinates": [ 80.2016924, 12.9197533 ] } },
{ "type": "Feature", "properties": { "element": "node", "id": 1329325017, "name": "Jayachandran Nagar", "place": "locality", "population": null, "settlement_id": "sett_98", "mean_risk": 0.71759999, "built_exposure": 0.01, "risk_exposure_score": 0.0072, "risk_tier": "Very High", "rank": 135 }, "geometry": { "type": "Point", "coordinates": [ 80.1987877, 12.9216334 ] } },
{ "type": "Feature", "properties": { "element": "node", "id": 964604382, "name": "Pallikaranai", "place": "suburb", "population": null, "settlement_id": "sett_89", "mean_risk": 0.69309998, "built_exposure": 0.01, "risk_exposure_score": 0.0069, "risk_tier": "Very High", "rank": 136 }, "geometry": { "type": "Point", "coordinates": [ 80.2077692, 12.9304748 ] } },
{ "type": "Feature", "properties": { "element": "node", "id": 402947915, "name": "Chettinad Enclave", "place": "locality", "population": null, "settlement_id": "sett_85", "mean_risk": 0.67479998, "built_exposure": 0.01, "risk_exposure_score": 0.0067, "risk_tier": "Very High", "rank": 137 }, "geometry": { "type": "Point", "coordinates": [ 80.2019131, 12.9417495 ] } },
{ "type": "Feature", "properties": { "element": "node", "id": 306115244, "name": "Sunnambu Kulathur", "place": "neighbourhood", "population": null, "settlement_id": "sett_32", "mean_risk": 0.59719998, "built_exposure": 0.01, "risk_exposure_score": 0.006, "risk_tier": "High", "rank": 138 }, "geometry": { "type": "Point", "coordinates": [ 80.1963456, 12.9426667 ] } },
{ "type": "Feature", "properties": { "element": "node", "id": 402947917, "name": "Maxworth Nagar", "place": "neighbourhood", "population": null, "settlement_id": "sett_86", "mean_risk": 0.59560001, "built_exposure": 0.01, "risk_exposure_score": 0.006, "risk_tier": "High", "rank": 139 }, "geometry": { "type": "Point", "coordinates": [ 80.1994903, 12.9439172 ] } },
{ "type": "Feature", "properties": { "element": "node", "id": 306115288, "name": "Narayanapuram", "place": "suburb", "population": null, "settlement_id": "sett_33", "mean_risk": 0.57800001, "built_exposure": 0.01, "risk_exposure_score": 0.0058, "risk_tier": "High", "rank": 140 }, "geometry": { "type": "Point", "coordinates": [ 80.2083837, 12.9417967 ] } },
{ "type": "Feature", "properties": { "element": "node", "id": 308900749, "name": "Agaramthen", "place": "suburb", "population": null, "settlement_id": "sett_41", "mean_risk": 0.565, "built_exposure": 0.01, "risk_exposure_score": 0.0056, "risk_tier": "High", "rank": 141 }, "geometry": { "type": "Point", "coordinates": [ 80.1539761, 12.885667 ] } }
]
}
