{
"type": "FeatureCollection",
"name": "preposition_sites",
"crs": { "type": "name", "properties": { "name": "urn:ogc:def:crs:OGC:1.3:CRS84" } },
"features": [
{ "type": "Feature", "properties": { "rank": 1, "site_id": "prepos_1", "name": "Pathala Vigneshvarar Temple", "lat": 12.971157, "lon": 80.19076, "covered_exposure": 141559.0, "covered_settlement_count": 22, "covered_settlements": "Madipakkam, Puzhuthivakkam, Ram Nagar, Sadasiva Nagar", "asset_package": "Hydro-Rescue & High-Water Evacuation", "staged_assets": "4 Inflatable Rescue Boats (IRBs), 2 High-Water Tractors, Life Vests, Mobile Water Purification, 500 Emergency Food Packs", "operational_mandate": "Direct water rescue in deeply inundated marsh basins and low-lying residential depressions." }, "geometry": { "type": "Point", "coordinates": [ 80.1907604, 12.9711569 ] } },
{ "type": "Feature", "properties": { "rank": 2, "site_id": "prepos_2", "name": "Sri Lakshmi Kuberar Temple", "lat": 12.865767, "lon": 80.136464, "covered_exposure": 62043.0, "covered_settlement_count": 8, "covered_settlements": "Agaramthen, Oriole, Vengambakkam, Rathinamangalam", "asset_package": "Urban Inundation & Dewatering Unit", "staged_assets": "3 Inflatable Boats, 2 High-Clearance 4x4 Ambulances, Portable Dewatering Pumps, Emergency First Aid & Trauma Kits", "operational_mandate": "Triage and rapid dewatering along submerged suburban streets and residential enclaves." }, "geometry": { "type": "Point", "coordinates": [ 80.1364639, 12.865767 ] } },
{ "type": "Feature", "properties": { "rank": 3, "site_id": "prepos_3", "name": "Rama Anjaneya Koil", "lat": 12.941117, "lon": 80.131149, "covered_exposure": 38979.0, "covered_settlement_count": 5, "covered_settlements": "Tambaram, Kadaperi, Kannadapalayam, Vinoba Nagar", "asset_package": "Arterial Highway & Transit Choke Hub", "staged_assets": "3 High-Clearance 4x4 Ambulances, Mobile Diesel Generators, Satellite Comms Transceiver, Emergency Surgical Kits", "operational_mandate": "Maintains patient stabilization and emergency transit across severed arterial causeways." }, "geometry": { "type": "Point", "coordinates": [ 80.1311487, 12.9411169 ] } },
{ "type": "Feature", "properties": { "rank": 4, "site_id": "prepos_4", "name": "Ganesh Temple", "lat": 12.81911, "lon": 80.040126, "covered_exposure": 16596.0, "covered_settlement_count": 2, "covered_settlements": "Potheri, Kattangulathur", "asset_package": "Bund Shoring & Wetland Rapid Response", "staged_assets": "2 Rescue Boats, 2 Rapid Water Rescue Squads, Emergency Medical Supplies, 1,000 Sandbags for bund reinforcement", "operational_mandate": "Perimeter shoring of lake bunds and urgent evacuation of vulnerable fringe habitations." }, "geometry": { "type": "Point", "coordinates": [ 80.0401265, 12.8191098 ] } },
{ "type": "Feature", "properties": { "rank": 5, "site_id": "prepos_5", "name": "Designated Public Shelter", "lat": 12.95923, "lon": 80.058481, "covered_exposure": 9611.0, "covered_settlement_count": 2, "covered_settlements": "Periya Colony, Thirumudivakkam", "asset_package": "Southern Corridor Emergency Medical Outpost", "staged_assets": "2 High-Clearance Ambulances, Emergency Radio Relay, Mobile Field Clinic, Heavy Duty Tow Vehicles", "operational_mandate": "Primary emergency medical stabilization for peripheral southern communities cut off from tertiary hospitals." }, "geometry": { "type": "Point", "coordinates": [ 80.05848085, 12.9592299 ] } }
]
}
