{
"type": "FeatureCollection",
"name": "top_grid_cells",
"crs": { "type": "name", "properties": { "name": "urn:ogc:def:crs:OGC:1.3:CRS84" } },
"features": [
{ "type": "Feature", "properties": { "cell_id": "cell_01558", "mean_risk": 0.66369998, "built_exposure": 0.9795, "risk_exposure_score": 0.65009999, "risk_tier": "Very High", "rank": 1 }, "geometry": { "type": "Polygon", "coordinates": [ [ [ 80.209119771944884, 12.971765848612211 ], [ 80.209105484887928, 12.976286782691602 ], [ 80.204495580025849, 12.976272727900186 ], [ 80.204509950336757, 12.971751798882426 ], [ 80.209119771944884, 12.971765848612211 ] ] ] } },
{ "type": "Feature", "properties": { "cell_id": "cell_01597", "mean_risk": 0.66229999, "built_exposure": 0.98, "risk_exposure_score": 0.64910001, "risk_tier": "Very High", "rank": 2 }, "geometry": { "type": "Polygon", "coordinates": [ [ [ 80.213743797387053, 12.967258876013281 ], [ 80.213729598962004, 12.971779816707825 ], [ 80.209119771944884, 12.971765848612211 ], [ 80.20913405359282, 12.96724491294972 ], [ 80.213743797387053, 12.967258876013281 ] ] ] } },
{ "type": "Feature", "properties": { "cell_id": "cell_01557", "mean_risk": 0.66219997, "built_exposure": 0.98, "risk_exposure_score": 0.649, "risk_tier": "Very High", "rank": 3 }, "geometry": { "type": "Polygon", "coordinates": [ [ [ 80.20913405359282, 12.96724491294972 ], [ 80.209119771944884, 12.971765848612211 ], [ 80.204509950336757, 12.971751798882426 ], [ 80.204524315207138, 12.967230868281399 ], [ 80.20913405359282, 12.96724491294972 ] ] ] } },
{ "type": "Feature", "properties": { "cell_id": "cell_01517", "mean_risk": 0.66240001, "built_exposure": 0.97549999, "risk_exposure_score": 0.6462, "risk_tier": "Very High", "rank": 4 }, "geometry": { "type": "Polygon", "coordinates": [ [ [ 80.204524315207138, 12.967230868281399 ], [ 80.204509950336757, 12.971751798882426 ], [ 80.199900134169155, 12.971737667518921 ], [ 80.199914582261499, 12.967216742008755 ], [ 80.204524315207138, 12.967230868281399 ] ] ] } },
{ "type": "Feature", "properties": { "cell_id": "cell_01598", "mean_risk": 0.66460001, "built_exposure": 0.96719998, "risk_exposure_score": 0.64289999, "risk_tier": "Very High", "rank": 5 }, "geometry": { "type": "Polygon", "coordinates": [ [ [ 80.213729598962004, 12.971779816707825 ], [ 80.213715395159468, 12.976300755819441 ], [ 80.209105484887928, 12.976286782691602 ], [ 80.209119771944884, 12.971765848612211 ], [ 80.213729598962004, 12.971779816707825 ] ] ] } },
{ "type": "Feature", "properties": { "cell_id": "cell_01637", "mean_risk": 0.6649, "built_exposure": 0.96130002, "risk_exposure_score": 0.63910002, "risk_tier": "Very High", "rank": 6 }, "geometry": { "type": "Polygon", "coordinates": [ [ [ 80.218353546558305, 12.967272757471633 ], [ 80.218339431356611, 12.971793703168819 ], [ 80.213729598962004, 12.971779816707825 ], [ 80.213743797387053, 12.967258876013281 ], [ 80.218353546558305, 12.967272757471633 ] ] ] } },
{ "type": "Feature", "properties": { "cell_id": "cell_01559", "mean_risk": 0.66350001, "built_exposure": 0.96280003, "risk_exposure_score": 0.63889998, "risk_tier": "Very High", "rank": 7 }, "geometry": { "type": "Polygon", "coordinates": [ [ [ 80.209105484887928, 12.976286782691602 ], [ 80.209091192421496, 12.980807715187384 ], [ 80.204481204273961, 12.980793655334153 ], [ 80.204495580025849, 12.976272727900186 ], [ 80.209105484887928, 12.976286782691602 ] ] ] } },
{ "type": "Feature", "properties": { "cell_id": "cell_01596", "mean_risk": 0.6631, "built_exposure": 0.95550001, "risk_exposure_score": 0.6336, "risk_tier": "Very High", "rank": 8 }, "geometry": { "type": "Polygon", "coordinates": [ [ [ 80.213757990435084, 12.962737933736328 ], [ 80.213743797387053, 12.967258876013281 ], [ 80.20913405359282, 12.96724491294972 ], [ 80.209148329832246, 12.962723975704645 ], [ 80.213757990435084, 12.962737933736328 ] ] ] } },
{ "type": "Feature", "properties": { "cell_id": "cell_01595", "mean_risk": 0.6638, "built_exposure": 0.95139998, "risk_exposure_score": 0.63150001, "risk_tier": "Very High", "rank": 9 }, "geometry": { "type": "Polygon", "coordinates": [ [ [ 80.213772178106566, 12.958216989877478 ], [ 80.213757990435084, 12.962737933736328 ], [ 80.209148329832246, 12.962723975704645 ], [ 80.209162600663589, 12.958203036877498 ], [ 80.213772178106566, 12.958216989877478 ] ] ] } },
{ "type": "Feature", "properties": { "cell_id": "cell_01516", "mean_risk": 0.6602, "built_exposure": 0.9447, "risk_exposure_score": 0.62370002, "risk_tier": "Very High", "rank": 10 }, "geometry": { "type": "Polygon", "coordinates": [ [ [ 80.204538674637476, 12.962709936097605 ], [ 80.204524315207138, 12.967230868281399 ], [ 80.199914582261499, 12.967216742008755 ], [ 80.19992902488228, 12.962695814915659 ], [ 80.204538674637476, 12.962709936097605 ] ] ] } },
{ "type": "Feature", "properties": { "cell_id": "cell_01599", "mean_risk": 0.62830001, "built_exposure": 0.97780001, "risk_exposure_score": 0.61440003, "risk_tier": "Very High", "rank": 11 }, "geometry": { "type": "Polygon", "coordinates": [ [ [ 80.213715395159468, 12.976300755819441 ], [ 80.213701185978991, 12.980821693347616 ], [ 80.209091192421496, 12.980807715187384 ], [ 80.209105484887928, 12.976286782691602 ], [ 80.213715395159468, 12.976300755819441 ] ] ] } },
{ "type": "Feature", "properties": { "cell_id": "cell_01636", "mean_risk": 0.65759999, "built_exposure": 0.93150002, "risk_exposure_score": 0.61250001, "risk_tier": "Very High", "rank": 12 }, "geometry": { "type": "Polygon", "coordinates": [ [ [ 80.218367656414486, 12.962751810192213 ], [ 80.218353546558305, 12.967272757471633 ], [ 80.213743797387053, 12.967258876013281 ], [ 80.213757990435084, 12.962737933736328 ], [ 80.218367656414486, 12.962751810192213 ] ] ] } },
{ "type": "Feature", "properties": { "cell_id": "cell_00788", "mean_risk": 0.62230003, "built_exposure": 0.9763, "risk_exposure_score": 0.60750002, "risk_tier": "Very High", "rank": 13 }, "geometry": { "type": "Polygon", "coordinates": [ [ [ 80.121692479905477, 12.92627652885008 ], [ 80.121676671161339, 12.930797377572514 ], [ 80.117067706095654, 12.930781827455791 ], [ 80.117083597769337, 12.926260984351792 ], [ 80.121692479905477, 12.92627652885008 ] ] ] } },
{ "type": "Feature", "properties": { "cell_id": "cell_01515", "mean_risk": 0.65490001, "built_exposure": 0.92510003, "risk_exposure_score": 0.60579997, "risk_tier": "Very High", "rank": 14 }, "geometry": { "type": "Polygon", "coordinates": [ [ [ 80.204553028628226, 12.958189002331565 ], [ 80.204538674637476, 12.962709936097605 ], [ 80.19992902488228, 12.962695814915659 ], [ 80.199943462031968, 12.958174886240132 ], [ 80.204553028628226, 12.958189002331565 ] ] ] } },
{ "type": "Feature", "properties": { "cell_id": "cell_00593", "mean_risk": 0.62449998, "built_exposure": 0.96640003, "risk_exposure_score": 0.60350001, "risk_tier": "Very High", "rank": 15 }, "geometry": { "type": "Polygon", "coordinates": [ [ [ 80.098566951336693, 12.948802078902835 ], [ 80.098550697141803, 12.953322891319212 ], [ 80.093941347457346, 12.953306905576648 ], [ 80.093957684736594, 12.948786098926679 ], [ 80.098566951336693, 12.948802078902835 ] ] ] } },
{ "type": "Feature", "properties": { "cell_id": "cell_01556", "mean_risk": 0.65679997, "built_exposure": 0.91869998, "risk_exposure_score": 0.60339999, "risk_tier": "Very High", "rank": 16 }, "geometry": { "type": "Polygon", "coordinates": [ [ [ 80.209148329832246, 12.962723975704645 ], [ 80.20913405359282, 12.96724491294972 ], [ 80.204524315207138, 12.967230868281399 ], [ 80.204538674637476, 12.962709936097605 ], [ 80.209148329832246, 12.962723975704645 ] ] ] } },
{ "type": "Feature", "properties": { "cell_id": "cell_00932", "mean_risk": 0.61269999, "built_exposure": 0.98, "risk_exposure_score": 0.60039997, "risk_tier": "Very High", "rank": 17 }, "geometry": { "type": "Polygon", "coordinates": [ [ [ 80.140374901610357, 12.854003744467239 ], [ 80.140359518555812, 12.858524640598613 ], [ 80.135751852794698, 12.85850950391823 ], [ 80.13576731827736, 12.853988613284669 ], [ 80.140374901610357, 12.854003744467239 ] ] ] } },
{ "type": "Feature", "properties": { "cell_id": "cell_00787", "mean_risk": 0.60759997, "built_exposure": 0.98, "risk_exposure_score": 0.59549999, "risk_tier": "Very High", "rank": 18 }, "geometry": { "type": "Polygon", "coordinates": [ [ [ 80.121708282646992, 12.921755678546191 ], [ 80.121692479905477, 12.92627652885008 ], [ 80.117083597769337, 12.926260984351792 ], [ 80.117099483408893, 12.921740139666142 ], [ 80.121708282646992, 12.921755678546191 ] ] ] } },
{ "type": "Feature", "properties": { "cell_id": "cell_00853", "mean_risk": 0.60650003, "built_exposure": 0.98, "risk_exposure_score": 0.59439999, "risk_tier": "Very High", "rank": 19 }, "geometry": { "type": "Polygon", "coordinates": [ [ [ 80.131144192934173, 12.858494286345953 ], [ 80.131128639091912, 12.863015169878981 ], [ 80.126520902704854, 12.862999865858528 ], [ 80.126536539005642, 12.858478987882265 ], [ 80.131144192934173, 12.858494286345953 ] ] ] } },
{ "type": "Feature", "properties": { "cell_id": "cell_01518", "mean_risk": 0.65499997, "built_exposure": 0.90700001, "risk_exposure_score": 0.5941, "risk_tier": "Very High", "rank": 20 }, "geometry": { "type": "Polygon", "coordinates": [ [ [ 80.204509950336757, 12.971751798882426 ], [ 80.204495580025849, 12.976272727900186 ], [ 80.199885680604766, 12.976258591445633 ], [ 80.199900134169155, 12.971737667518921 ], [ 80.204509950336757, 12.971751798882426 ] ] ] } },
{ "type": "Feature", "properties": { "cell_id": "cell_00928", "mean_risk": 0.59960002, "built_exposure": 0.98, "risk_exposure_score": 0.58759999, "risk_tier": "Very High", "rank": 21 }, "geometry": { "type": "Polygon", "coordinates": [ [ [ 80.140436375147488, 12.835920144222513 ], [ 80.140421015564357, 12.840441046640546 ], [ 80.135813679326986, 12.840425931950289 ], [ 80.135829121212453, 12.835905035029317 ], [ 80.140436375147488, 12.835920144222513 ] ] ] } },
{ "type": "Feature", "properties": { "cell_id": "cell_00632", "mean_risk": 0.607, "built_exposure": 0.96499997, "risk_exposure_score": 0.58569998, "risk_tier": "Very High", "rank": 22 }, "geometry": { "type": "Polygon", "coordinates": [ [ [ 80.103192389078245, 12.944297157665037 ], [ 80.103176224099514, 12.948817977403245 ], [ 80.098566951336693, 12.948802078902835 ], [ 80.098583199368846, 12.94428126490144 ], [ 80.103192389078245, 12.944297157665037 ] ] ] } },
{ "type": "Feature", "properties": { "cell_id": "cell_00675", "mean_risk": 0.59750003, "built_exposure": 0.98, "risk_exposure_score": 0.5855, "risk_tier": "High", "rank": 23 }, "geometry": { "type": "Polygon", "coordinates": [ [ [ 80.107753320844225, 12.957875440564253 ], [ 80.10773722061866, 12.96239626125446 ], [ 80.103127692373803, 12.962380427106883 ], [ 80.103143875747804, 12.957859612124681 ], [ 80.107753320844225, 12.957875440564253 ] ] ] } },
{ "type": "Feature", "properties": { "cell_id": "cell_01676", "mean_risk": 0.65200001, "built_exposure": 0.89780003, "risk_exposure_score": 0.58539999, "risk_tier": "Very High", "rank": 24 }, "geometry": { "type": "Polygon", "coordinates": [ [ [ 80.222977327738917, 12.96276560507186 ], [ 80.222963301075055, 12.967286557324341 ], [ 80.218353546558305, 12.967272757471633 ], [ 80.218367656414486, 12.962751810192213 ], [ 80.222977327738917, 12.96276560507186 ] ] ] } },
{ "type": "Feature", "properties": { "cell_id": "cell_00931", "mean_risk": 0.59729999, "built_exposure": 0.98, "risk_exposure_score": 0.58539999, "risk_tier": "High", "rank": 25 }, "geometry": { "type": "Polygon", "coordinates": [ [ [ 80.140390278796303, 12.849482846763424 ], [ 80.140374901610357, 12.854003744467239 ], [ 80.13576731827736, 12.853988613284669 ], [ 80.135782777859959, 12.849467721078483 ], [ 80.140390278796303, 12.849482846763424 ] ] ] } },
{ "type": "Feature", "properties": { "cell_id": "cell_01638", "mean_risk": 0.653, "built_exposure": 0.89310002, "risk_exposure_score": 0.58319998, "risk_tier": "Very High", "rank": 26 }, "geometry": { "type": "Polygon", "coordinates": [ [ [ 80.218339431356611, 12.971793703168819 ], [ 80.218325310808964, 12.976314647283251 ], [ 80.213715395159468, 12.976300755819441 ], [ 80.213729598962004, 12.971779816707825 ], [ 80.218339431356611, 12.971793703168819 ] ] ] } },
{ "type": "Feature", "properties": { "cell_id": "cell_00749", "mean_risk": 0.60470003, "built_exposure": 0.96420002, "risk_exposure_score": 0.58310002, "risk_tier": "Very High", "rank": 27 }, "geometry": { "type": "Polygon", "coordinates": [ [ [ 80.117067706095654, 12.930781827455791 ], [ 80.11705180838733, 12.93530266897762 ], [ 80.112442766395802, 12.935287031852715 ], [ 80.112458747064622, 12.93076619597891 ], [ 80.117067706095654, 12.930781827455791 ] ] ] } },
{ "type": "Feature", "properties": { "cell_id": "cell_00519", "mean_risk": 0.61150002, "built_exposure": 0.95289999, "risk_exposure_score": 0.5826, "risk_tier": "Very High", "rank": 28 }, "geometry": { "type": "Polygon", "coordinates": [ [ [ 80.08924980874751, 12.975894818800908 ], [ 80.089233351018791, 12.980415610131727 ], [ 80.084623514593886, 12.980399426424905 ], [ 80.084640055594974, 12.975878640920508 ], [ 80.08924980874751, 12.975894818800908 ] ] ] } },
{ "type": "Feature", "properties": { "cell_id": "cell_01478", "mean_risk": 0.65189999, "built_exposure": 0.8876, "risk_exposure_score": 0.57859999, "risk_tier": "Very High", "rank": 29 }, "geometry": { "type": "Polygon", "coordinates": [ [ [ 80.199900134169155, 12.971737667518921 ], [ 80.199885680604766, 12.976258591445633 ], [ 80.195275786656183, 12.976244373328393 ], [ 80.1952903234736, 12.971723454522133 ], [ 80.199900134169155, 12.971737667518921 ] ] ] } },
{ "type": "Feature", "properties": { "cell_id": "cell_00636", "mean_risk": 0.58920002, "built_exposure": 0.98, "risk_exposure_score": 0.57740003, "risk_tier": "High", "rank": 30 }, "geometry": { "type": "Polygon", "coordinates": [ [ [ 80.103127692373803, 12.962380427106883 ], [ 80.10311150286698, 12.966901240502716 ], [ 80.098501897575517, 12.96688531905308 ], [ 80.098518170261755, 12.962364511394849 ], [ 80.103127692373803, 12.962380427106883 ] ] ] } },
{ "type": "Feature", "properties": { "cell_id": "cell_00671", "mean_risk": 0.61769998, "built_exposure": 0.93330002, "risk_exposure_score": 0.5765, "risk_tier": "Very High", "rank": 31 }, "geometry": { "type": "Polygon", "coordinates": [ [ [ 80.10781766074399, 12.939792141952067 ], [ 80.107801584918363, 12.944312968981786 ], [ 80.103192389078245, 12.944297157665037 ], [ 80.103208547926315, 12.939776336342529 ], [ 80.10781766074399, 12.939792141952067 ] ] ] } },
{ "type": "Feature", "properties": { "cell_id": "cell_00634", "mean_risk": 0.58810002, "built_exposure": 0.98, "risk_exposure_score": 0.57639998, "risk_tier": "High", "rank": 32 }, "geometry": { "type": "Polygon", "coordinates": [ [ [ 80.103160052989537, 12.953338795556633 ], [ 80.103143875747804, 12.957859612124681 ], [ 80.09853443678368, 12.957843702150059 ], [ 80.098550697141803, 12.953322891319212 ], [ 80.103160052989537, 12.953338795556633 ] ] ] } },
{ "type": "Feature", "properties": { "cell_id": "cell_00854", "mean_risk": 0.58780003, "built_exposure": 0.98, "risk_exposure_score": 0.57609999, "risk_tier": "High", "rank": 33 }, "geometry": { "type": "Polygon", "coordinates": [ [ [ 80.131128639091912, 12.863015169878981 ], [ 80.131113079317146, 12.867536051838163 ], [ 80.126505260440112, 12.867520742260755 ], [ 80.126520902704854, 12.862999865858528 ], [ 80.131128639091912, 12.863015169878981 ] ] ] } },
{ "type": "Feature", "properties": { "cell_id": "cell_00927", "mean_risk": 0.58639997, "built_exposure": 0.97750002, "risk_exposure_score": 0.57319999, "risk_tier": "High", "rank": 34 }, "geometry": { "type": "Polygon", "coordinates": [ [ [ 80.140451728864008, 12.831399240234107 ], [ 80.140436375147488, 12.835920144222513 ], [ 80.135829121212453, 12.835905035029317 ], [ 80.135844557199874, 12.831384136537782 ], [ 80.140451728864008, 12.831399240234107 ] ] ] } },
{ "type": "Feature", "properties": { "cell_id": "cell_01554", "mean_risk": 0.65509999, "built_exposure": 0.87290001, "risk_exposure_score": 0.57179999, "risk_tier": "Very High", "rank": 35 }, "geometry": { "type": "Polygon", "coordinates": [ [ [ 80.209176866087333, 12.953682096468793 ], [ 80.209162600663589, 12.958203036877498 ], [ 80.204553028628226, 12.958189002331565 ], [ 80.204567377179856, 12.953668066983791 ], [ 80.209176866087333, 12.953682096468793 ] ] ] } },
{ "type": "Feature", "properties": { "cell_id": "cell_00748", "mean_risk": 0.58289999, "built_exposure": 0.98, "risk_exposure_score": 0.57130003, "risk_tier": "High", "rank": 36 }, "geometry": { "type": "Polygon", "coordinates": [ [ [ 80.117083597769337, 12.926260984351792 ], [ 80.117067706095654, 12.930781827455791 ], [ 80.112458747064622, 12.93076619597891 ], [ 80.112474721667297, 12.926245358522742 ], [ 80.117083597769337, 12.926260984351792 ] ] ] } },
{ "type": "Feature", "properties": { "cell_id": "cell_01001", "mean_risk": 0.58249998, "built_exposure": 0.98, "risk_exposure_score": 0.57080001, "risk_tier": "High", "rank": 37 }, "geometry": { "type": "Polygon", "coordinates": [ [ [ 80.149757102947845, 12.804303683172719 ], [ 80.149741948586609, 12.808824607475906 ], [ 80.145135176109775, 12.808809692400072 ], [ 80.145150412554358, 12.804288773533889 ], [ 80.149757102947845, 12.804303683172719 ] ] ] } },
{ "type": "Feature", "properties": { "cell_id": "cell_00858", "mean_risk": 0.58230001, "built_exposure": 0.98, "risk_exposure_score": 0.57059997, "risk_tier": "High", "rank": 38 }, "geometry": { "type": "Polygon", "coordinates": [ [ [ 80.131066364392638, 12.881098688267446 ], [ 80.131050780882703, 12.885619563926063 ], [ 80.126442631731194, 12.885604232118908 ], [ 80.126458297856942, 12.881083362018012 ], [ 80.131066364392638, 12.881098688267446 ] ] ] } },
{ "type": "Feature", "properties": { "cell_id": "cell_00850", "mean_risk": 0.6117, "built_exposure": 0.93150002, "risk_exposure_score": 0.5697, "risk_tier": "Very High", "rank": 39 }, "geometry": { "type": "Polygon", "coordinates": [ [ [ 80.131190818870905, 12.844931626308927 ], [ 80.13117528282315, 12.849452514560404 ], [ 80.126567793717342, 12.84943722720968 ], [ 80.126583412129278, 12.84491634451439 ], [ 80.131190818870905, 12.844931626308927 ] ] ] } },
{ "type": "Feature", "properties": { "cell_id": "cell_01477", "mean_risk": 0.65009999, "built_exposure": 0.87580001, "risk_exposure_score": 0.5693, "risk_tier": "Very High", "rank": 40 }, "geometry": { "type": "Polygon", "coordinates": [ [ [ 80.199914582261499, 12.967216742008755 ], [ 80.199900134169155, 12.971737667518921 ], [ 80.1952903234736, 12.971723454522133 ], [ 80.195304854787437, 12.967202534132248 ], [ 80.199914582261499, 12.967216742008755 ] ] ] } },
{ "type": "Feature", "properties": { "cell_id": "cell_00963", "mean_risk": 0.57870001, "built_exposure": 0.98, "risk_exposure_score": 0.56720001, "risk_tier": "High", "rank": 41 }, "geometry": { "type": "Polygon", "coordinates": [ [ [ 80.145119933833016, 12.813330609699168 ], [ 80.145104685723581, 12.817851525430655 ], [ 80.140497754818966, 12.817836518851797 ], [ 80.14051308507409, 12.813315608587056 ], [ 80.145119933833016, 12.813330609699168 ] ] ] } },
{ "type": "Feature", "properties": { "cell_id": "cell_00679", "mean_risk": 0.589, "built_exposure": 0.96270001, "risk_exposure_score": 0.56699997, "risk_tier": "High", "rank": 42 }, "geometry": { "type": "Polygon", "coordinates": [ [ [ 80.107688883332031, 12.975958713805994 ], [ 80.107672758698072, 12.980479528148432 ], [ 80.103062897544319, 12.980463671166861 ], [ 80.103079105452764, 12.97594286253322 ], [ 80.107688883332031, 12.975958713805994 ] ] ] } },
{ "type": "Feature", "properties": { "cell_id": "cell_00599", "mean_risk": 0.57609999, "built_exposure": 0.98, "risk_exposure_score": 0.56459999, "risk_tier": "High", "rank": 43 }, "geometry": { "type": "Polygon", "coordinates": [ [ [ 80.098469333707925, 12.975926929607775 ], [ 80.09845304252552, 12.980447732503215 ], [ 80.093843193673166, 12.980431712158001 ], [ 80.093859568129005, 12.975910915030171 ], [ 80.098469333707925, 12.975926929607775 ] ] ] } },
{ "type": "Feature", "properties": { "cell_id": "cell_00967", "mean_risk": 0.58310002, "built_exposure": 0.96689999, "risk_exposure_score": 0.56379998, "risk_tier": "High", "rank": 44 }, "geometry": { "type": "Polygon", "coordinates": [ [ [ 80.14505890639424, 12.831414263214324 ], [ 80.145043634949133, 12.835935172670228 ], [ 80.140436375147488, 12.835920144222513 ], [ 80.140451728864008, 12.831399240234107 ], [ 80.14505890639424, 12.831414263214324 ] ] ] } },
{ "type": "Feature", "properties": { "cell_id": "cell_01006", "mean_risk": 0.5923, "built_exposure": 0.95120001, "risk_exposure_score": 0.56339997, "risk_tier": "High", "rank": 45 }, "geometry": { "type": "Polygon", "coordinates": [ [ [ 80.149681273129147, 12.826908289014453 ], [ 80.149666089759165, 12.83142920547796 ], [ 80.14505890639424, 12.831414263214324 ], [ 80.145074172004698, 12.826893352188749 ], [ 80.149681273129147, 12.826908289014453 ] ] ] } },
{ "type": "Feature", "properties": { "cell_id": "cell_00889", "mean_risk": 0.57340002, "built_exposure": 0.98, "risk_exposure_score": 0.56190002, "risk_tier": "High", "rank": 46 }, "geometry": { "type": "Polygon", "coordinates": [ [ [ 80.135813679326986, 12.840425931950289 ], [ 80.135798231542992, 12.844946827300184 ], [ 80.131190818870905, 12.844931626308927 ], [ 80.131206348988158, 12.840410736485659 ], [ 80.135813679326986, 12.840425931950289 ] ] ] } },
{ "type": "Feature", "properties": { "cell_id": "cell_01080", "mean_risk": 0.58700001, "built_exposure": 0.95569998, "risk_exposure_score": 0.561, "risk_tier": "High", "rank": 47 }, "geometry": { "type": "Polygon", "coordinates": [ [ [ 80.158985485559825, 12.799812324172347 ], [ 80.158970501104207, 12.804333260827446 ], [ 80.154363799141606, 12.804318512270726 ], [ 80.154378865650145, 12.79979758099371 ], [ 80.158985485559825, 12.799812324172347 ] ] ] } },
{ "type": "Feature", "properties": { "cell_id": "cell_00715", "mean_risk": 0.59850001, "built_exposure": 0.93669999, "risk_exposure_score": 0.56059998, "risk_tier": "Very High", "rank": 48 }, "geometry": { "type": "Polygon", "coordinates": [ [ [ 80.112362772041422, 12.957891187468272 ], [ 80.112346754964818, 12.962412013837076 ], [ 80.10773722061866, 12.96239626125446 ], [ 80.107753320844225, 12.957875440564253 ], [ 80.112362772041422, 12.957891187468272 ] ] ] } },
{ "type": "Feature", "properties": { "cell_id": "cell_01042", "mean_risk": 0.57190001, "built_exposure": 0.98, "risk_exposure_score": 0.56050003, "risk_tier": "High", "rank": 49 }, "geometry": { "type": "Polygon", "coordinates": [ [ [ 80.154348726864214, 12.808839441981544 ], [ 80.154333648817484, 12.813360370125647 ], [ 80.149726788424616, 12.813345530212189 ], [ 80.149741948586609, 12.808824607475906 ], [ 80.154348726864214, 12.808839441981544 ] ] ] } },
{ "type": "Feature", "properties": { "cell_id": "cell_00631", "mean_risk": 0.57080001, "built_exposure": 0.97890002, "risk_exposure_score": 0.55879998, "risk_tier": "High", "rank": 50 }, "geometry": { "type": "Polygon", "coordinates": [ [ [ 80.103208547926315, 12.939776336342529 ], [ 80.103192389078245, 12.944297157665037 ], [ 80.098583199368846, 12.94428126490144 ], [ 80.09859944123879, 12.939760449315539 ], [ 80.103208547926315, 12.939776336342529 ] ] ] } }
]
}
