{
"type": "FeatureCollection",
"name": "top_critical_roads",
"crs": { "type": "name", "properties": { "name": "urn:ogc:def:crs:OGC:1.3:CRS84" } },
"features": [
{ "type": "Feature", "properties": { "edge_id": "7802828844_7802828852_0", "name": "Mount - Medavakkam Road", "highway": "primary", "risk": 0.5325, "flow_exposure": 135044.0, "isolated_exposure": 0.0, "isolated_count": 0, "isolated_settlements": "", "composite_criticality": 6636.25, "explanation": "Severance forces detours for 17 communities (கண்ணன் நகர் (+1.9m), Balaji Nagar (+8.2m), Ullagaram (+7.5m)), adding acute medical transit delays.", "lat": 12.972122, "lon": 80.191333, "rank": 1 }, "geometry": { "type": "LineString", "coordinates": [ [ 80.1915389, 12.9726258 ], [ 80.1914999, 12.9725284 ], [ 80.1913657, 12.9721936 ], [ 80.1913443, 12.9721312 ], [ 80.1913253, 12.9720889 ], [ 80.1913088, 12.9720521 ], [ 80.1912452, 12.9719104 ], [ 80.1911194, 12.9716218 ] ] } },
{ "type": "Feature", "properties": { "edge_id": "300279978_11626495136_0", "name": "Ponniamman Koil Street", "highway": "tertiary", "risk": 0.6391, "flow_exposure": 72320.0, "isolated_exposure": 0.0, "isolated_count": 0, "isolated_settlements": "", "composite_criticality": 3320.71, "explanation": "Severance forces detours for 8 communities (Madipakkam (+2.8m), Puzhuthivakkam (+2.8m), Ram Nagar (+2.8m)), adding acute medical transit delays.", "lat": 12.965469, "lon": 80.196115, "rank": 2 }, "geometry": { "type": "LineString", "coordinates": [ [ 80.1961121, 12.9653701 ], [ 80.1961186, 12.9655676 ] ] } },
{ "type": "Feature", "properties": { "edge_id": "278608777_3895067958_0", "name": "Puzhuthivakkam Road", "highway": "tertiary", "risk": 0.6402, "flow_exposure": 72320.0, "isolated_exposure": 0.0, "isolated_count": 0, "isolated_settlements": "", "composite_criticality": 481.95, "explanation": "High-traffic arterial carrying 72,320 exposure units through high flood hazard (0.64).", "lat": 12.972365, "lon": 80.196225, "rank": 3 }, "geometry": { "type": "LineString", "coordinates": [ [ 80.1964637, 12.9723418 ], [ 80.195986, 12.9723883 ] ] } },
{ "type": "Feature", "properties": { "edge_id": "10591500451_280086381_0", "name": "Puzhuthivakkam Road", "highway": "tertiary", "risk": 0.6385, "flow_exposure": 72320.0, "isolated_exposure": 0.0, "isolated_count": 0, "isolated_settlements": "", "composite_criticality": 76.65, "explanation": "High-traffic arterial carrying 72,320 exposure units through high flood hazard (0.64).", "lat": 12.972419, "lon": 80.194568, "rank": 4 }, "geometry": { "type": "LineString", "coordinates": [ [ 80.1949692, 12.9724059 ], [ 80.1947133, 12.9724132 ], [ 80.1941674, 12.9724337 ] ] } },
{ "type": "Feature", "properties": { "edge_id": "7802828852_9840924628_0", "name": "Mount - Medavakkam Road", "highway": "primary", "risk": 0.5129, "flow_exposure": 135044.0, "isolated_exposure": 0.0, "isolated_count": 0, "isolated_settlements": "", "composite_criticality": 6510.77, "explanation": "Severance forces detours for 17 communities (கண்ணன் நகர் (+1.9m), Balaji Nagar (+8.1m), Ullagaram (+7.5m)), adding acute medical transit delays.", "lat": 12.971457, "lon": 80.19105, "rank": 5 }, "geometry": { "type": "LineString", "coordinates": [ [ 80.1911194, 12.9716218 ], [ 80.190981, 12.9712931 ] ] } },
{ "type": "Feature", "properties": { "edge_id": "9840924628_7802828851_0", "name": "Mount - Medavakkam Road", "highway": "primary", "risk": 0.5092, "flow_exposure": 135044.0, "isolated_exposure": 0.0, "isolated_count": 0, "isolated_settlements": "", "composite_criticality": 6451.2, "explanation": "Severance forces detours for 17 communities (கண்ணன் நகர் (+1.8m), Balaji Nagar (+8.1m), Ullagaram (+7.4m)), adding acute medical transit delays.", "lat": 12.971214, "lon": 80.19095, "rank": 6 }, "geometry": { "type": "LineString", "coordinates": [ [ 80.190981, 12.9712931 ], [ 80.1909194, 12.9711352 ] ] } },
{ "type": "Feature", "properties": { "edge_id": "7802828851_11064463129_0", "name": "Mount - Medavakkam Road", "highway": "primary", "risk": 0.5129, "flow_exposure": 135044.0, "isolated_exposure": 0.0, "isolated_count": 0, "isolated_settlements": "", "composite_criticality": 6328.19, "explanation": "Severance forces detours for 17 communities (கண்ணன் நகர் (+1.8m), Balaji Nagar (+8.0m), Ullagaram (+7.4m)), adding acute medical transit delays.", "lat": 12.970974, "lon": 80.19085, "rank": 7 }, "geometry": { "type": "LineString", "coordinates": [ [ 80.1909194, 12.9711352 ], [ 80.1908731, 12.9710225 ], [ 80.1908616, 12.9709977 ], [ 80.1907773, 12.9708151 ] ] } },
{ "type": "Feature", "properties": { "edge_id": "11064463129_7802828850_0", "name": "Mount - Medavakkam Road", "highway": "primary", "risk": 0.5092, "flow_exposure": 135044.0, "isolated_exposure": 0.0, "isolated_count": 0, "isolated_settlements": "", "composite_criticality": 6230.21, "explanation": "Severance forces detours for 17 communities (கண்ணன் நகர் (+1.7m), Balaji Nagar (+8.0m), Ullagaram (+7.3m)), adding acute medical transit delays.", "lat": 12.970687, "lon": 80.190722, "rank": 8 }, "geometry": { "type": "LineString", "coordinates": [ [ 80.1907773, 12.9708151 ], [ 80.1907687, 12.9707965 ], [ 80.1906667, 12.9705595 ] ] } },
{ "type": "Feature", "properties": { "edge_id": "7802828850_7802828809_0", "name": "Mount - Medavakkam Road", "highway": "primary", "risk": 0.5063, "flow_exposure": 135044.0, "isolated_exposure": 0.0, "isolated_count": 0, "isolated_settlements": "", "composite_criticality": 6071.95, "explanation": "Severance forces detours for 17 communities (கண்ணன் நகர் (+1.7m), Balaji Nagar (+7.9m), Ullagaram (+7.2m)), adding acute medical transit delays.", "lat": 12.970351, "lon": 80.190582, "rank": 9 }, "geometry": { "type": "LineString", "coordinates": [ [ 80.1906667, 12.9705595 ], [ 80.1905789, 12.9703347 ], [ 80.1904921, 12.9701449 ] ] } },
{ "type": "Feature", "properties": { "edge_id": "7802828809_7808779564_0", "name": "Mount - Medavakkam Road", "highway": "primary", "risk": 0.5095, "flow_exposure": 135044.0, "isolated_exposure": 0.0, "isolated_count": 0, "isolated_settlements": "", "composite_criticality": 5990.88, "explanation": "Severance forces detours for 17 communities (கண்ணன் நகர் (+1.6m), Balaji Nagar (+7.9m), Ullagaram (+7.2m)), adding acute medical transit delays.", "lat": 12.970041, "lon": 80.190441, "rank": 10 }, "geometry": { "type": "LineString", "coordinates": [ [ 80.1904921, 12.9701449 ], [ 80.1904865, 12.9701326 ], [ 80.1903901, 12.9699378 ] ] } }
]
}
